Name,BuildingNumber,Fraction,Street,Unit,City,Zip Code,GeoArea,PlaceStatus,PlaceType,PlaceSubType,PrivateResidence,Note,PhoneNumber,Email,Website
24 Hours Gyros & Subs,2058,,E 71st St,St,Chicago,60649,South Shore,Active,Dining,Fast Food,False,,773-643-4000,,
AP Deli,2025,,E 75th St,,Chicago,60649,South Shore,Active,Dining,Fast Food,False,,773-288-4931,,
Asian Spoon,7042,,S Stony Island Ave,,Chicago,60649,South Shore,Out of Business,Dining,Fast Food,False,,,,
Big Shark,2553,,E 75th St,,Chicago,60649,South Shore,Out of Business,Dining,Fast Food,False,,773-374-9898,,
Burger King,7222,,S Stony Island Ave,,Chicago,60649,South Shore,Active,Dining,Fast Food,False,,,,
Caribbean Jerk & BBQ Pit,1652,,E 79th St,,Chicago,60649,South Shore,Out of Business,Dining,Fast Food,False,,773-734-5799,,
Harold's Chicken Shack,2142,,E 71st St,,Chicago,60649,South Shore,Out of Business,Dining,Fast Food,False,,773-324-9868,,
Church's Chicken,7102,,S Stony Island Ave,,Chicago,60649,South Shore,Active,Dining,Fast Food,False,,773-684-0993,,
J and J Fish and Chicken,6814,,S Stony Island Ave,,Chicago,60649,South Shore,Active,Dining,Fast Food,False,,773-256-0100,,
Jamaican Restaurant,2126,,E 71st St,,Chicago,60649,South Shore,Active,Dining,Fast Food,False,,773-363-6855,,
Jeffery Sub,2022,,E 71st St,,Chicago,60649,South Shore,Active,Dining,Fast Food,False,,773-288-0202,,
Joji Gyros,2518,,E 79th St,,Chicago,60649,South Shore,Active,Dining,Fast Food,False,,773-978-4545,,
JR's Jamaican Tropical Cuisine,2200,,E 79th St,,Chicago,60649,South Shore,Active,Dining,Fast Food,False,,773-375-1080,,
Harold's Chicken Shack,7348,,S Stony Island Ave,,Chicago,60649,South Shore,Active,Dining,Fast Food,False,,773-288-1200,,
KFC,7459,,S Stony Island Ave,,Chicago,60649,South Shore,Active,Dining,Fast Food,False,,773-643-3636,,
Nadia Fish and Chicken,2704,,E 75th St,,Chicago,60649,South Shore,Active,Dining,Fast Food,False,,773-933-1500,,
New China Express,2101,,E 71st St,Ste H,Chicago,60649,South Shore,Active,Dining,Fast Food,False,,773-288-0888,,
Nicky's Gyros,7001,,S Stony Island Ave,,Chicago,60649,South Shore,Active,Dining,Fast Food,False,,,,
Papa John's Pizza,2101,,E 71st St,St Ste J,Chicago,60649,South Shore,Active,Dining,Fast Food,False,,773-288-7272,,
Little Babas,2660,,E 79th St,,Chicago,60649,South Shore,Active,Dining,Fast Food,False,,773-306-2551,,
Pizza Hut,6724,,S Stony Island Ave,,Chicago,60649,South Shore,Active,Dining,Fast Food,False,,773-947-6770,,
Popeyes Louisiana Kitchen,7444,,S Stony Island Ave,,Chicago,60649,South Shore,Active,Dining,Fast Food,False,,,,
Subway,7358,,S Stony Island Ave,,Chicago,60649,South Shore,Active,Dining,Fast Food,False,,773-288-3232,,
Subway,2101,,E 71st St,Ste I,Chicago,60649,South Shore,Active,Dining,Fast Food,False,,773-643-0932,,
Subway,6718,,S Stony Island Ave,,Chicago,60637,South Shore,Active,Dining,Fast Food,False,,,,
Surf's Up,2236,,E 71st St,,Chicago,60649,South Shore,Out of Business,Dining,Fast Food,False,,,,
Taco Bell,7856,,S Stony Island Ave,,Chicago,60649,South Shore,Active,Dining,Fast Food,False,,773-221-5501,,
Super Steak,1914,,E 79th St,,Chicago,60649,South Shore,Active,Dining,Fast Food,False,,773-221-8000,,
That's a Burger,2134,,E 71st St,,Chicago,60649,South Shore,Out of Business,Dining,Fast Food,False,,773-493-2080,,
The Banana Leaf Restaurant,1948,,E 79th St,,Chicago,60649,South Shore,Active,Dining,Fast Food,False,,773-359-4290,,
Wade's Chicken Fish Fish & Gyro,2403,,E 75th St,,Chicago,60649,South Shore,Out of Business,Dining,Fast Food,False,,773-221-7800,,
Wings 'N' Fins,1751,,E 75th St,,Chicago,60649,South Shore,Active,Dining,Fast Food,True,,773-256-0800,,
Yup! Chicken and Seafood,6922,,S Stony Island Ave,,Chicago,60649,South Shore,Out of Business,Dining,Fast Food,False,,773-966-6410,,
Flash Taco,2247,,E 71st St,,Chicago,60636,South Shore,Active,Dining,Fast Food,False,,,,
Royal Caribbean Jerk,7269,,S Exchange Ave,,Chicago,60649,South Shore,Active,Dining,Fast Food,False,,773-359-2161,,
Hoagy House,7116,,S Yates Blvd,,Chicago,60638,South Shore,Active,Dining,Fast Food,False,,,,
Rainbow Beach Sub Shop,7520,,S Exchange Ave,,Chicago,60649,South Shore,Active,Dining,Fast Food,False,,773-978-2200,,
Seashell Fish and Chicken,7131,,S Jeffery Ave,K2,Chicago,60649,South Shore,Active,Dining,Fast Food,False,,773-493-7777,,
See Thru Chinese Kitchen,6720,,S Stony Island Ave,,Chicago,60649,South Shore,Active,Dining,Fast Food,False,,773-752-6862,,
See Thru Chinese Kitchen,7613,,S Jeffery Ave,,Chicago,60649,South Shore,Active,Dining,Fast Food,False,,773-731-1828,,
Shark's Fish & Chicken,1734,,E 71st St,,Chicago,60649,South Shore,Active,Dining,Fast Food,False,,,,
Baba's Famous Steak & Lemonade,2101,,E 71st St,Ste K,Chicago,60649,South Shore,Active,Dining,Fast Food,False,,773-324-9000,,
Ming Chop Suey,7114,,S Yates Blvd,,Chicago,60649,South Shore,Active,Dining,Restaurant,False,,773-752-6588,,
Parrot Cage Restaurant,7059,,S South Shore Dr,,Chicago,60649,South Shore,Active,Dining,Restaurant,False,,773-602-5333,,
L & G Family Restaurant,7464,,S Exchange Ave,,Chicago,60649,South Shore,Active,Dining,Restaurant,False,,773-731-5399,,
L & G Family Restaurant,2632,,E 75th St,,Chicago,60649,South Shore,Active,Dining,Restaurant,False,,,,
Good Foods Vegan/Vegetarian Deli,1966,,E 73rd St,,Chicago,60649,South Shore,Active,Dining,Restaurant,False,,,,
Italian Fiesta Pizzeria,1919,,E 71st St,,Chicago,60649,South Shore,Active,Dining,Restaurant,False,,773-684-2222,,
House of Bing,6930,,S South Shore Dr,Ofc,Chicago,60649,South Shore,Active,Dining,Restaurant,False,,773-363-5400,,
Chef Sara's Cafe,7201,,S Exchange Ave,,Chicago,60649,South Shore,Active,Dining,Restaurant,False,,773-359-4637,,
The Exchange Tap,7159,,S Exchange Ave,,Chicago,60649,South Shore,Active,Dining,Bar-grill,False,,773-734-9785,,
Starbucks Coffee,7101,,S Stony Island Ave,,Chicago,60649,South Shore,Active,Dining,Café-Bakery-Specialty,False,,773-643-6520,,
Give Me Some Sugah,2234,,E 71st St,,Chicago,60649,South Shore,Active,Dining,Café-Bakery-Specialty,False,,773-363-9330,,
Isaiah Paul,7000,,S Jeffery Ave,,Chicago,60649,South Shore,Active,Dining,Other,True,,940-247-2424,,
1 Chop Suey,7342,,S Stony Island Ave,,Chicago,60649,South Shore,Active,Dining,Fast Food,False,,773-643-3888,,
Galaxy Food and Cellular,2708,,E 75th St,,Chicago,60649,South Shore,Active,Retail,Convenience,False,,,,
Z & S Market Express,1728,,E 79th St,,Chicago,60649,South Shore,Active,Retail,Convenience,False,,773-374-8199,,
Zee Wireless,7344,,S Stony Island Ave,,Chicago,60649,South Shore,Active,Retail,Convenience,False,,773-966-5395,,
South Shore Food & Liquor,2400,,E 75th St,,Chicago,60649,South Shore,Active,Retail,Convenience,False,,773-731-5166,,
South Shore Mini Pantry,7447,,S South Shore Dr,,Chicago,60649,South Shore,Unknown,Retail,Convenience,True,,,,
National Mart,7337,,S South Shore Dr,,Chicago,60649,South Shore,Active,Retail,Convenience,False,,,,
Merrill Food,2122,,E 71st St,,Chicago,60649,South Shore,Active,Retail,Convenience,False,,,,
Luella Food Store,2226,,E 79th St,,Chicago,60649,South Shore,Out of Business,Retail,Convenience,False,,,,
D & S Food & Liquor,1650,,E 79th St,,Chicago,60649,South Shore,Active,Retail,Convenience,False,,773-375-1000,,
Jewel Osco,7530,,S Stony Island Ave,,Chicago,60619,South Shore,Active,Retail,Large grocery,False,,773-955-8150,,
Save-A-Lot,7240,,S Stony Island Ave,,Chicago,60619,South Shore,Active,Retail,Large grocery,False,,773-643-4867,,
The Unit Fresh Market,2523,,E 75th St,,Chicago,60649,South Shore,Active,Retail,Small Grocery,False,,773-221-6707,,
Kennedy Fish And Chicken,2425,,E 72nd St,,Chicago,,South Shore,Active,Dining,Fast Food,False,,773-221-1000,,
El Barakah Supermarket,7300,,S South Shore Dr,,Chicago,60649,South Shore,Active,Retail,Small Grocery,False,,773-374-7033,,
Baba Dollar Plus Market,7300,,S Jeffery Ave,,Chicago,60649,South Shore,Out of Business,Retail,Small Grocery,False,,,,
Fairway Foods,2900,,E 79th St,,Chicago,60649,South Shore,Active,Retail,Small Grocery,False,,773-721-3355,,
Big Salem's Food Mart,1724,,E 71st St,St,Chicago,60649,South Shore,Active,Retail,Small Grocery,False,,773-363-7596,,
Crandon Super Market,2238,,E 71st St,St,Chicago,60649,South Shore,Active,Retail,Small Grocery,False,,773-288-7631,,
M & R Prescription Center,1959,,E 71st St,St,Chicago,60649,South Shore,Active,Retail,Drug,False,,773-643-4200,,
Walgreens,7544,,S Stony Island Ave,,Chicago,60649,South Shore,Out of Business,Retail,Drug,False,,773-667-6959,,
Private Moments Inspirational Curtains,2201,,E 67th St,Fl 2,Chicago,60649,South Shore,Unknown,Dining,Restaurant,True,,,,
Walgreens,1533,,E 67th St,,Chicago,60637,South Shore,Active,Retail,Drug,False,,773-493-0733,,
S & K Food & Liquor,7500,,S Exchange Ave,,Chicago,60649,South Shore,Active,Retail,Liquor,False,,312-978-6571,,
Buddies Liquor,1758,,E 79th St,,Chicago,60649,South Shore,Out of Business,Retail,Liquor,False,,773-978-0390,,
Budget Food and Liqour,2504,,E 79th St,Fl 1,Chicago,60649,South Shore,Active,Retail,Liquor,False,,773-375-1709,,
Fashion N Style,6904,,S Stony Island Ave,,Chicago,60637,South Shore,Active,Retail,Clothing,False,,773-684-4110,,
City Sports,2024,,E 71st St,St,Chicago,60649,South Shore,Active,Retail,Clothing,False,,773-241-5771,,
Bedroom Magic Boutique,1536,,E 73rd St,,Chicago,60619,South Shore,Out of Business,Retail,Clothing,True,,773-684-9365,,
Bibi Shabby Chic Boutique,2034,,E 79th St,,Chicago,60649,South Shore,Out of Business,Retail,Clothing,False,,,,
Big Mamas Exchange for Exchange,2807,,E 77th St,,Chicago,60649,South Shore,Active,Retail,Convenience,True,,,,
Walgreens,7109,,S Jeffery Ave,,Chicago,60649,South Shore,Active,Retail,Drug,False,,773-324-1880,,
Rainbow Kids,2101,,E 71st St,St Ste E,Chicago,60649,South Shore,Out of Business,Retail,Clothing,False,,773-324-2400,,
Rejoice Christianwear,1955,,E 71st St,,Chicago,60649,South Shore,Out of Business,Retail,Clothing,False,,773-288-4800,,
Rainbow,7131,,S Jeffery Ave,G,Chicago,60649,South Shore,Active,Retail,Clothing,False,,773-752-5685,,
The Shop 147,7225,,S Stony Island Ave,,Chicago,60649,South Shore,Active,Retail,Clothing,False,,773-324-9902,,
Sullivan's Fashions,2524,,E 75th St,Fl 1,Chicago,60649,South Shore,Out of Business,Retail,Clothing,False,,773-731-2122,,
K & G Men's Superstore (#0708 Chicago),7540,,S Stony Island Ave,,Chicago,60619,South Shore,Active,Retail,Clothing,False,,773-684-1055,,
Katucha Fashion and More,7856,,S Jeffery Ave,,Chicago,60649,South Shore,Active,Retail,Clothing,False,,,,
Kay's Reggae Shop,1964,,E 73rd St,,Chicago,60649,South Shore,Active,Retail,Clothing,False,,,,
One Day At A Time,7350,,S Oglesby Ave,,Chicago,60649,South Shore,Unknown,Retail,Clothing,True,,773-221-8326,,
DTLR,7550,,S Stony Island Ave,,Chicago,60649,South Shore,Active,Retail,Clothing,False,,773-643-8573,,
B-Fly,2032,,E 71st St,St,Chicago,60649,South Shore,Active,Retail,Clothing,False,,773-952-4219,,
It's Major,1737,,E 71st St,,Chicago,60649,South Shore,Active,Retail,Clothing,False,,773-241-7600,,
Villa,2101,,E 71st St,Ste D,Chicago,60649,South Shore,Active,Retail,Clothing,False,,773-643-9461,,
No Name,7506,,S Exchange Ave,,Chicago,60620,South Shore,Active,Retail,Clothing,False,,,,
Shoetime,2030,,E 71st St,St,Chicago,60649,South Shore,Out of Business,Retail,Shoes,False,,773-667-9780,,
Modern Shoes,2044,,E 71st St,,Chicago,60649,South Shore,Active,Retail,Shoes,False,,773-947-9848,,
South Shore Gallery and Estate Sales,2156,,E 71st St,,Chicago,60649,South Shore,Out of Business,Retail,Resale,False,,773-363-8770,,
Ynot Repeats,7631,,S Jeffery Ave,,Chicago,60649,South Shore,Active,Retail,Resale,False,,773-933-5103,,
Smart Thrift,7810,,S Stony Island Ave,,Chicago,60649,South Shore,Out of Business,Retail,Resale,False,,773-978-5830,,
Chez Vous Up Scale Boutique,1931,,E 71st St,St,Chicago,60649,South Shore,Active,Retail,Resale,False,,773-288-8689,,
Family Dollar,2660,,E 79th St,Ste D,Chicago,60649,South Shore,Active,Retail,Small mixed,False,,773-731-1711,,
Family Dollar,2346,,E 79th St,Unit 50,Chicago,60649,South Shore,Active,Retail,Small mixed,False,,773-768-8369,,
Family Dollar,2159,,E 71st St,,Chicago,60649,South Shore,Active,Retail,Small mixed,False,,773-324-0015,,
Dollar Express,1425,,E 71st St,St,Chicago,60619,South Shore,Active,Retail,Small mixed,False,,773-324-0498,,
Adam's Food Mart & Cellular,6810,,S Stony Island Ave,,Chicago,60649,South Shore,Active,Retail,Small mixed,False,,773-288-7777,,
Ez Dollar,2429,,E 72nd St,,Chicago,,South Shore,Out of Business,Retail,Small mixed,False,,773-374-7744,,
B.O.T. 2nd Time Around,1355,,E 75th St,,Chicago,60619,South Shore,Out of Business,Retail,Small mixed,False,,773-947-9471,,
A Plus Cellular/ Dollar Market Plus,7336,,S Stony Island Ave,,Chicago,60649,South Shore,Active,Retail,Small mixed,False,,773-955-5900,,
Dollar Station,2100,,E 71st St,,Chicago,60649,South Shore,Active,Retail,Small mixed,False,,773-947-6920,,
Dollar Tree,7153,,S Stony Island Ave,,Chicago,60649,South Shore,Active,Retail,Small mixed,False,,773-363-0580,,
Dollar Tree,2626,,E 75th St,,Chicago,60649,South Shore,Active,Retail,Small mixed,False,,,,
Dollar Tree,7158,,S Stony Island Ave,,Chicago,60649,South Shore,Active,Retail,Small mixed,False,,,,
Deborah's Clothing,7718,,S Ridgeland Ave,,Chicago,60649,South Shore,Active,Retail,Clothing,True,,773-734-5742,,
Jordan Valley Foods,1976,,E 73rd St,Fl 1,Chicago,60649,South Shore,Active,Retail,Small Grocery,False,,773-288-4749,,
Alleyne Burton's Shop,7111,,S Paxton Ave,,Chicago,60649,South Shore,Out of Business,Retail,Clothing,True,,773-324-8854,,
World Wide Furniture,7340,,S Stony Island Ave,,Chicago,60649,South Shore,Active,Retail,Housewares & furnishings,False,,,,
Inline Designs,6846,,S Paxton Ave,Apt 1,Chicago,60649,South Shore,Active,Retail,Housewares & furnishings,True,,773-752-6430,,
Flooring Emporium,2531,,E 73rd St,,Chicago,60649,South Shore,Out of Business,Retail,Housewares & furnishings,True,,,,
Furniture and Mattress Liquidators,1441,,E 75th St,,Chicago,60619,South Shore,Active,Retail,Housewares & furnishings,False,,,,
Jeffro Furniture,1943,,E 71st St,,Chicago,60649,South Shore,Active,Retail,Housewares & furnishings,False,,773-955-8484,,
Metro Hardware,2260,,E 75th St,,Chicago,60649,South Shore,Active,Retail,Hardware,False,,773-734-3990,,
Do It Best Wilson Brothers Paint and Hardware,1914,,E 71st St,,Chicago,60649,South Shore,Out of Business,Retail,Hardware,False,,773-363-9066,,
True Value,2538,,E 79th St,,Chicago,60649,South Shore,Active,Retail,Hardware,False,,,,
Ralph's Heating and Air Conditioning,2714,,E 79th St,,Chicago,60649,South Shore,Active,Retail,Hardware,False,,773-375-4600,,
Scarfs by Ann,7739,,S Jeffery Ave,,Chicago,60649,South Shore,Out of Business,Retail,Beauty-Accessory,True,,773-221-9397,,
Royal Wigs,2048,,E 71st St,,Chicago,60649,South Shore,Active,Retail,Beauty-Accessory,False,,773-752-5115,,
Momadou Jewelry,1818,,E 72nd St,,Chicago,,South Shore,Active,Retail,Beauty-Accessory,True,,773-407-2779,,
Trendsetter Lace Wigs,7652,,S Colfax Ave,Unit 2,Chicago,60649,South Shore,Active,Retail,Beauty-Accessory,True,,773-851-1677,,
Sun Jewelry,7131,,S Jeffery Ave,K1,Chicago,60649,South Shore,Active,Retail,Beauty-Accessory,False,,773-667-1717,,
The Scentuary,2154,,E 71st St,,Chicago,60649,South Shore,Out of Business,Retail,Beauty-Accessory,False,,773-643-1425,,
Star Beauty Supply,7350,,S Stony Island Ave,,Chicago,60649,South Shore,Out of Business,Retail,Beauty-Accessory,False,,773-684-9361,,
Hats by Lola,1754,,E 73rd St,,Chicago,60649,South Shore,Out of Business,Retail,Beauty-Accessory,True,,773-363-8034,,
Nine Essential and More,7142,,S Exchange Ave,,Chicago,60649,South Shore,Out of Business,Retail,Beauty-Accessory,False,,773-731-2722,,
Jazz Beauty Supply,2660,,E 79th St,Ste C,Chicago,60649,South Shore,Active,Retail,Beauty-Accessory,False,,773-933-0125,,
Value Beauty Supply,2357,,E 75th St,,Chicago,60649,South Shore,Active,Retail,Beauty-Accessory,False,,773-768-8245,,
Beauty Connection,2006,,E 71st St,,Chicago,60649,South Shore,Active,Retail,Beauty-Accessory,False,,773-643-4700,,
Beauty Connection,7047,,S Jeffery Ave,,Chicago,60649,South Shore,Active,Retail,Beauty-Accessory,False,,773-643-4700,,
Cosmo Beauty Supply,2623,,E 75th St,,Chicago,60649,South Shore,Active,Retail,Beauty-Accessory,False,,773-734-2900,,
Cosmo Discount,6820,,S Stony Island Ave,,Chicago,60637,South Shore,Active,Retail,Beauty-Accessory,False,,773-363-7890,,
Cricket,7131,,S Jeffery Ave,C,Chicago,60649,South Shore,Active,Retail,Phones,False,,,,
Cricket,6722,,S Stony Island Ave,,Chicago,60649,South Shore,Active,Retail,Phones,False,,773-891-4130,,
Crystal Clear Electronic Communications,1753,,E 67th St,,Chicago,60649,South Shore,Out of Business,Retail,Phones,True,,773-288-2649,,
Boost Mobile,2042,,E 71st St,,Chicago,60649,South Shore,Active,Retail,Phones,False,,773-667-8500,,
Boost Mobile,1954,,E 79th St,,Chicago,60649,South Shore,Active,Retail,Phones,False,,,,
1-Mobile,7106,,S Jeffery Ave,,Chicago,60649,South Shore,Active,Retail,Phones,False,,773-752-7000,,
Air 1 Communication and Accessories,2824,,E 79th St,,Chicago,60649,South Shore,Out of Business,Retail,Phones,False,,773-734-4950,,
Wilson Communication,2052,,E 71st St,,Chicago,60649,South Shore,Active,Retail,Phones,False,,773-363-7414,,
MetroPCS,1916,,E 79th St,,Chicago,60649,South Shore,Active,Retail,Phones,False,,,,
MetroPCS,7122,,S Jeffery Ave,,Chicago,60649,South Shore,Active,Retail,Phones,False,,,,
MetroPCS,2660,,E 79th St,A2,Chicago,60649,South Shore,Active,Retail,Phones,False,,773-359-2253,,
The Connect,1534,,E 75th St,,Chicago,60619,South Shore,Active,Retail,Phones,False,,773-324-9490,,
One Two Three Connect,2401,,E 75th St,,Chicago,60649,South Shore,Active,Retail,Phones,False,,773-731-0708,,
Radioshack,7131,,S Jeffery Ave,H,Chicago,60649,South Shore,Active,Retail,Electronics & appliances,False,,773-643-0080,,
Landlord Depot,1643,,E 71st St,,Chicago,60649,South Shore,Active,Retail,Electronics & appliances,False,,773-752-3538,,
A & B Furniture,1737,,E 75th St,,Chicago,60649,South Shore,Out of Business,Retail,Electronics & appliances,False,,,,
Appliance Discount Center,2047,,E 75th St,,Chicago,60649,South Shore,Active,Retail,Electronics & appliances,False,,773-752-4141,,
Labrosphil Foreign Cars,7220,,S South Shore Dr,,Chicago,60649,South Shore,Unknown,Retail,Car-truck-motorcycle,True,,,,
Dunmore Auto Sales,7320,,S Stony Island Ave,,Chicago,60649,South Shore,Active,Retail,Car-truck-motorcycle,False,,773-667-9400,,
Rjs Emergency Auto Alarm,2712,,E 77th St,,Chicago,60649,South Shore,Unknown,Retail,Auto Supply,True,,,,
Superior Tire,7683,,S South Chicago Ave,,Chicago,60619,South Shore,Active,Retail,Auto Supply,False,,,,
Autozone,7600,,S Stony Island Ave,,Chicago,60649,South Shore,Active,Retail,Auto Supply,False,,773-978-1744,,
Advance Auto Parts,7118,,S Stony Island Ave,,Chicago,60649,South Shore,Active,Retail,Auto Supply,False,,,,
Amstar,2352,,E 75th St,,Chicago,60649,South Shore,Active,Retail,Gas station,False,,773-374-0617,,
BP,7448,,S Stony Island Ave,,Chicago,60649,South Shore,Active,Retail,Gas station,False,,773-955-4596,,
BP,7603,,S South Chicago Ave,,Chicago,60619,South Shore,Active,Retail,Gas station,False,,773-374-4428,,
Mobil,6700,,S Jeffery Ave,,Chicago,60649,South Shore,Active,Retail,Gas station,False,,773-324-1633,,
All Star,2310,,E 79th St,,Chicago,60649,South Shore,Active,Retail,Gas station,False,,,,
Shell,7001,,S Stony Island Ave,,Chicago,60649,South Shore,Active,Retail,Gas station,False,,,,
Midwest,1932,,E 75th St,,Chicago,60649,South Shore,Active,Retail,Gas station,False,,,,
Fuel Star,7601,,S Jeffery Ave,,Chicago,60649,South Shore,Active,Retail,Gas station,False,,,,
Golo,7600,,S Exchange Ave,,Chicago,60649,South Shore,Active,Retail,Gas station,False,,773-221-8007,,
Herbert's Handcrafts,1954,,E 79th St,,Chicago,60649,South Shore,Active,Retail,Gift-art-ethnic,False,,773-721-3803,,
Expressions,2210,,E 69th St,,Chicago,,South Shore,Active,Retail,Gift-art-ethnic,True,,,,
Leauasis Gallery of Art,7428,,S Yates Blvd,,Chicago,60649,South Shore,Out of Business,Retail,Gift-art-ethnic,True,,773-437-4389,,
Mos Artware and Gifts,7424,,S South Shore Dr,,Chicago,60649,South Shore,Out of Business,Retail,Gift-art-ethnic,True,,773-768-6322,,
South Shore Gift Shop,1972,,E 73rd St,,Chicago,60649,South Shore,Out of Business,Retail,Gift-art-ethnic,False,,,,
Studio 71,1834,,E 71st St,,Chicago,60649,South Shore,Active,Retail,Gift-art-ethnic,False,,773-324-5904,,
Zambezi Progressive Art,7663,,S South Chicago Ave,,Chicago,60619,South Shore,Active,Retail,Gift-art-ethnic,False,,773-734-2718,,
All Eyes on Egypt Bookstore,7851,,S Ridgeland Ave,,Chicago,60649,South Shore,Active,Retail,Gift-art-ethnic,False,,773-768-9042,,
Gamestop,7131,,S Jeffery Ave,1,Chicago,60649,South Shore,Active,Retail,Toys,False,,773-363-7510,,
The Music Experience,1959,2017-01-02,E 73rd St,Unit 1,Chicago,60649,South Shore,Active,Retail,Other,True,,,,
Why Not Vending,6909,,S Crandon Ave,,Chicago,60649,South Shore,Out of Business,Retail,Other,True,,312-450-1764,,
BK Records and Entertainment,2452,,E 79th St,,Chicago,60649,South Shore,Active,Retail,Other,False,,773-221-7664,,
B & J Group,2032,,E 79th St,,Chicago,60649,South Shore,Active,Retail,Other,False,,773-374-1700,,
Bicycles,7437,,S Baldwin Ave,,Chicago,,South Shore,Out of Business,Retail,Other,True,,773-305-7409,,
Car X Muffler and Brake,7424,,S Stony Island Ave,,Chicago,60649,South Shore,Active,Trade Service,Vehicle services,False,,773-493-6500,,
Flickin,2824,,E 79th St,,Chicago,60649,South Shore,Out of Business,Trade Service,Vehicle services,False,,773-734-4950,,
Hand Car Wash,1724,,E 75th St,,Chicago,60649,South Shore,Out of Business,Trade Service,Vehicle services,False,,773-641-6000,,
King's Auto Repair,1500,,E 75th St,,Chicago,60619,South Shore,Active,Trade Service,Vehicle services,False,,773-955-0704,,
Kar Kare Service,7455,,S Exchange Ave,,Chicago,60649,South Shore,Active,Trade Service,Vehicle services,False,,773-721-2401,,
Melbar Foreign Cars,1401,,E 71st St,,Chicago,60619,South Shore,Active,Trade Service,Vehicle services,False,,773-363-7292,,
Quality Hand Car Wash,7215,,S Stony Island Ave,,Chicago,60649,South Shore,Active,Trade Service,Vehicle services,False,,773-752-9274,,
Midas,7419,,S Stony Island Ave,,Chicago,60649,South Shore,Active,Trade Service,Vehicle services,False,,773-667-1111,,
Midas,7257,,S Stony Island Ave,,Chicago,60649,South Shore,Active,Trade Service,Vehicle services,False,,773-614-1610,,
Pro Wheels Tire Warehouse,2206,,E 75th St,,Chicago,60649,South Shore,Active,Trade Service,Vehicle services,False,,773-731-4466,,
Roseco Auto Rebuilders,7410,,S Stony Island Ave,,Chicago,60649,South Shore,Active,Trade Service,Vehicle services,False,,773-493-4081,,
Self Service Car Wash,1701,,E 75th St,,Chicago,60649,South Shore,Out of Business,Trade Service,Vehicle services,False,,,,
Stop Shop,2054,,E 79th St,,Chicago,60649,South Shore,Active,Trade Service,Vehicle services,False,,773-734-9674,,
The Pit Stop 500,7000,,S Stony Island Ave,,Chicago,60649,South Shore,Active,Trade Service,Vehicle services,False,,773-667-7222,,
Transaction Automotive,1533,,E 71st St,,Chicago,60619,South Shore,Out of Business,Trade Service,Vehicle services,False,,773-643-8887,,
Windy City Engine & Parts,7700,,S Stony Island Ave,,Chicago,60649,South Shore,Active,Trade Service,Vehicle services,False,,773-721-7373,,
USA Roofing and Construction,7444,,S Kimbark Ave,Apt 1,Chicago,60619,South Shore,Active,Trade Service,Building trades,True,,773-643-1000,,
Ujamaa Construction,7744,,S Stony Island Ave,,Chicago,60649,South Shore,Active,Trade Service,Building trades,False,,773-374-1300,,
Universal Heating and Cooling,7836,,S Yates Blvd,,Chicago,60649,South Shore,Active,Trade Service,Building trades,True,,,,
Tubz Done Right Kitchen Bathroom Refinishing,6711,,S Cregier Ave,Apt 1A,Chicago,60649,South Shore,Out of Business,Trade Service,Building trades,True,,,,
Taylor Electric Company,7811,,S Stony Island Ave,,Chicago,60649,South Shore,Active,Trade Service,Building trades,False,,773-346-5658,,
South Shore Construction Company,7834,,S South Shore Dr,,Chicago,60649,South Shore,Unknown,Trade Service,Building trades,True,,,,
South Shore Plumbing & Heating,7256,,S Exchange Ave,,Chicago,60649,South Shore,Active,Trade Service,Building trades,False,,773-374-8866,,
Sims Properties Development and Management,6920,,S South Shore Dr,,Chicago,60649,South Shore,Active,Trade Service,Building trades,True,,773-752-9000,,
Rudy's Home Improvement,2915,,E 78th St,Apt 1B,Chicago,,South Shore,Active,Trade Service,Building trades,True,,,,
Ridgeway Paving Construction,7052,,S South Shore Dr,,Chicago,60649,South Shore,Unknown,Trade Service,Building trades,True,,773-324-0267,,
Morgan And Morgan Rehabbers,7528,,S Merrill Ave,,Chicago,60649,South Shore,Unknown,Trade Service,Building trades,True,,,,
Oglesby Home Building,6740,,S Oglesby Ave,Apt 2,Chicago,60649,South Shore,Out of Business,Trade Service,Building trades,True,,773-947-9116,,
Pipkins Electric,7130,,S Jeffery Ave,,Chicago,60649,South Shore,Out of Business,Trade Service,Building trades,True,,773-463-6249,,
Kgs Building Services,7540,,S Oglesby Ave,,Chicago,60649,South Shore,Unknown,Trade Service,Building trades,True,,,,
Hyland A Nolan Plastering Company,7408,,S Exchange Ave,,Chicago,60649,South Shore,Active,Trade Service,Building trades,False,,773-731-5030,,
Hay Mac Plumbers,7135,,S Paxton Ave,,Chicago,60649,South Shore,Out of Business,Trade Service,Building trades,True,,773-643-3289,,
Jenkins Electrical Contractors,7300,,S South Shore Dr,,Chicago,60649,South Shore,Unknown,Trade Service,Building trades,True,,773-406-8803,,
H&H Contractors,6921,,S Merrill Ave,,Chicago,60649,South Shore,Unknown,Trade Service,Building trades,True,,773-425-8416,,
Gem Energy Group,2860,,E 76th St,,Chicago,60649,South Shore,Unknown,Trade Service,Building trades,True,,,,
E Grant Electrical Consultant and Development,6723,,S Oglesby Ave,,Chicago,60649,South Shore,Out of Business,Trade Service,Building trades,True,,773-288-1110,,
Clock Construction,7442,,S Phillips Ave,Ste 1,Chicago,60649,South Shore,Out of Business,Trade Service,Building trades,True,No sign individual number,773-324-7733,,
Burris & Sons Heating & Cooling,7850,,S Colfax Ave,,Chicago,60649,South Shore,Active,Trade Service,Building trades,False,,773-375-4123,,
C and C Bell Plumbing,7638,,S Colfax Ave,,Chicago,60649,South Shore,Active,Trade Service,Building trades,True,,773-351-9644,,
C F Taffe Plumbing,7412,,S Exchange Ave,,Chicago,60649,South Shore,Active,Trade Service,Building trades,False,,773-221-6474,,
Ameriastar Contractors,6700,,S South Shore Dr,,Chicago,60649,South Shore,Out of Business,Trade Service,Building trades,True,,773-241-5003,,
All Star Electric Company,7343,,S Chappel Ave,,Chicago,60649,South Shore,Out of Business,Trade Service,Building trades,True,,773-667-5117,,
Angelo's Plumbing and Repair Services,6719,,S Oglesby Ave,,Chicago,60649,South Shore,Active,Trade Service,Building trades,True,,773-493-4090,,
Angels Roof,2520,,E 72nd Pl,,Chicago,,South Shore,Active,Trade Service,Building trades,True,,,,
Ajv Heating Cooling,2716,,E 76th Pl,,Chicago,,South Shore,Out of Business,Trade Service,Building trades,True,,,,
A & D Construction Company,7346,,S Exchange Ave,,Chicago,60649,South Shore,Active,Trade Service,Building trades,False,,773-933-7840,,
Able and Willing Plumbing,6700,,S South Shore Dr,,Chicago,60649,South Shore,Moved,Trade Service,Building trades,True,,773-731-1373,,
Abbey's Sealcoating Paving & Striping,7801,,S South Chicago Ave,,Chicago,60619,South Shore,Active,Trade Service,Building trades,False,,773-671-2772,,
B D Construction,6940,,S Oglesby Ave,Apt 3W,Chicago,60649,South Shore,Out of Business,Trade Service,Building trades,True,,773-507-0389,,
Bell Painting & Installation,7612,,S Yates Blvd,,Chicago,60649,South Shore,Active,Trade Service,Building trades,True,,773-933-4705,,
Finest Shoe Repair,1938,,E 79th St,,Chicago,60649,South Shore,Active,Trade Service,Other repair,False,,773-818-3742,,
The Dobbins Group,7706,,S East End Ave,,Chicago,60649,South Shore,Out of Business,Trade Service,Outdoor service,True,,773-458-0050,,
Student Landscapers,7716,,S East End Ave,,Chicago,60649,South Shore,Out of Business,Trade Service,Outdoor service,True,,877-974-7277,,
Bill Johnson Landscape Design,1727,,E 75th St,,Chicago,60649,South Shore,Active,Trade Service,Outdoor service,False,,773-288-8419,,
Darnell's Ground Service,7149,,S Exchange Ave,,Chicago,60649,South Shore,Active,Trade Service,Outdoor service,False,,773-375-3408,,
Brown Services,7317,,S Merrill Ave,,Chicago,60649,South Shore,Active,Trade Service,Outdoor service,True,,773-319-1386,,
Worldwide Constructors and Landscaping,6815,,S Jeffery Ave,,Chicago,60649,South Shore,Out of Business,Trade Service,Outdoor service,True,,,,
Zap Pest Control,2520,,E 72nd Pl,,Chicago,,South Shore,Active,Trade Service,Indoor service,True,,877-781-1940,,
Cleaning Hands,1751,,E 67th St,,Chicago,60649,South Shore,Out of Business,Trade Service,Indoor service,True,,773-324-5689,,
Cleaning Masters,7749,,S Phillips Ave,,Chicago,,South Shore,Out of Business,Trade Service,Indoor service,True,No sign number disconnected,773-731-1496,,
Mccurty Home Maintenance,7815,,S Saginaw Ave,,Chicago,,South Shore,Out of Business,Trade Service,Indoor service,True,No sign number is Glass Designers Inc,773-978-2815,,
Quality Maintenance Janitorial Supply,1343,,E 71st Pl,,Chicago,,South Shore,Unknown,Trade Service,Indoor service,True,No signs or number,,,
R & B Pest Control,6718,,S Ridgeland Ave,,Chicago,60649,South Shore,Active,Trade Service,Indoor service,True,,773-255-4812,,
DJ and Associates,7442,,S Kenwood Ave,,Chicago,60619,South Shore,Active,Trade Service,Indoor service,True,,312-450-1408,,
Fox & Fox Janitorial Services,2619,,E 74th St,Apt 2E,Chicago,60649,South Shore,Unknown,Trade Service,Indoor service,True,,,,
J B's Carpet and Rug Cleaning Services,7618,,S Yates Blvd,,Chicago,60649,South Shore,Active,Trade Service,Indoor service,True,,773-721-4237,,
J&S Cleaning Service,7843,,S Constance Ave,,Chicago,60649,South Shore,Unknown,Trade Service,Indoor service,True,,773-374-6619,,
Jan Pro Cleaning Systems,7558,,S Yates Blvd,,Chicago,60649,South Shore,Out of Business,Trade Service,Indoor service,True,,773-374-2486,,
Golden Age Cleaning,7236,,S Euclid Ave,,Chicago,60649,South Shore,Out of Business,Trade Service,Indoor service,True,,773-256-0135,,
Katco & Associates,7558,,S Yates Blvd,,Chicago,60649,South Shore,Out of Business,Trade Service,Indoor service,True,,773-934-2326,,
Loves Cleaning,2149,,E 68th St,,Chicago,,South Shore,Out of Business,Trade Service,Indoor service,True,,,,
L.U.P. Pest Control,7124,,S Jeffery Ave,,Chicago,60649,South Shore,Active,Trade Service,Indoor service,False,,773-675-4757,,
Foscett's Communications and Alarm,1842,,E 79th St,,Chicago,60649,South Shore,Active,Trade Service,Security,False,,773-374-3700,,
Execupro,1335,,E 75th St,,Chicago,60619,South Shore,Out of Business,Trade Service,Security,False,,,,
Alextronics Systems,1869,,E 71st St,,Chicago,60649,South Shore,Active,Trade Service,Security,False,,773-363-5000,,
Blink Digital Security,6700,,S South Shore Dr,,Chicago,60649,South Shore,Moved,Trade Service,Security,True,,312-342-8315,,
Allpoints Security and Detective Agency,2110,2017-01-02,E 71st St,,Chicago,60649,South Shore,Active,Trade Service,Security,False,,773-955-6700,,
Flower Shop,1969,,E 73rd St,,Chicago,60649,South Shore,Active,Trade Service,Florist,False,,773-375-1856,,
Maison Bleu,1814,,E 79th St,,Chicago,60649,South Shore,Out of Business,Trade Service,Florist,False,,773-734-9052,,
Progressive Funeral Parlor,7208,,S Stony Island Ave,,Chicago,60649,South Shore,Active,Trade Service,Funeral,False,,773-288-7110,,
Slaughter & Son Funeral Home,2024,,E 75th St,,Chicago,60649,South Shore,Active,Trade Service,Funeral,False,,773-643-5355,,
E Z Tree Recycling,7050,,S Dorchester Ave,,Chicago,60637,South Shore,Active,Trade Service,Disposal,False,,773-493-8600,,
Life Savers,1842,,E 79th St,,Chicago,60649,South Shore,Active,Trade Service,Equipment rental,False,,773-731-8660,,
"TNURB Equipment Leasing, Demolition, and Excavating",1220,,E 75th St,,Chicago,60619,South Shore,Unknown,Trade Service,Equipment rental,True,,,,
Rent-A-Center,2101,,E 71st St,Ste G,Chicago,60649,South Shore,Active,Trade Service,Equipment rental,False,,773-324-4800,,
Bike Clinic,2221,,E 71st St,,Chicago,60649,South Shore,Active,Trade Service,Bike shops,False,,773-955-2028,,
CBI Computers,7269,,S Exchange Ave,,Chicago,60649,South Shore,Active,Trade Service,Tech service,False,,773-731-4780,,
R And G Technologies,2600,,E 78th St,,Chicago,,South Shore,Unknown,Trade Service,Tech service,True,No signs or number,,,
Printbox Technologies Limited,7733,,S Saginaw Ave,,Chicago,60649,South Shore,Active,Trade Service,Tech service,True,,773-734-6858,,
Silently Speaking Designs,7641,,S Yates Blvd,,Chicago,60649,South Shore,Unknown,Trade Service,Tech service,True,,,,
H2 Tech Services,7801,,S Paxton Ave,,Chicago,60649,South Shore,Unknown,Trade Service,Tech service,True,,,,
Latif Communications Group,7405,,S Kimbark Ave,,Chicago,60619,South Shore,Out of Business,Trade Service,Media,True,,312-849-3456,,
Smith Myers and Company,7809,,S Cornell Ave,,Chicago,60649,South Shore,Active,Trade Service,Media,True,,773-731-2567,,
Tbl Publishing,6700,,S Oglesby Ave,,Chicago,60649,South Shore,Unknown,Trade Service,Media,True,,,,
Pretty Boy Pictures,7051,,S Bennett Ave,,Chicago,60649,South Shore,Unknown,Trade Service,Media,True,,,,
Reel Biz Solutions,7701,,S Paxton Ave,,Chicago,60649,South Shore,Unknown,Trade Service,Media,True,,,,
RTM Productions,7741,,S Cornell Ave,Ste 3,Chicago,60649,South Shore,Active,Trade Service,Media,True,,773-374-4075,,
Chicago Salon News,6825,,S Ridgeland Ave,,Chicago,60649,South Shore,Unknown,Trade Service,Media,True,,,,
Chico One Company,6927,,S Merrill Ave,Ste 2,Chicago,60649,South Shore,Active,Trade Service,Media,True,,773-288-2637,,
Vizion Media,1461,,E 69th Pl,,Chicago,,South Shore,Out of Business,Trade Service,Media,True,,312-373-9112,,
Potter Studio Photography,2040,,E 79th St,,Chicago,60649,South Shore,Active,Trade Service,Photo studio,False,,,,
Reclaiming Beauty Studio,2042,,E 79th St,,Chicago,60649,South Shore,Active,Trade Service,Photo studio,False,,773-321-2216,,
The Phoenix Studio,2340,,E 75th St,,Chicago,60649,South Shore,Active,Trade Service,Photo studio,True,,,,
Dei World Focus Photograph,6815,,S Crandon Ave,,Chicago,60649,South Shore,Active,Trade Service,Photo studio,True,,,,
Richard Duncan Photography,6926,,S Bennett Ave,,Chicago,60649,South Shore,Unknown,Trade Service,Photo studio,True,,773-684-5160,,
Townsend Photos Unlimited,1720,,E 70th St,,Chicago,,South Shore,Active,Trade Service,Photo studio,True,,773-752-1830,,
Lowenstein Photo,7321,,S South Shore Dr,,Chicago,60649,South Shore,Unknown,Trade Service,Photo studio,True,,773-220-0275,,
Hyde Park Animal Hospital,6937,,S Stony Island Ave,,Chicago,60649,South Shore,Active,Trade Service,Animal care,False,,773-324-4484,,
Dorchester Animal Hospital,1400,,E 75th St,,Chicago,60619,South Shore,Active,Trade Service,Animal care,False,,773-363-2200,,
South Shore Animal Clinic,2320,,E 79th St,,Chicago,60649,South Shore,Out of Business,Trade Service,Animal care,False,,773-375-1212,,
Beauty Supply,7500,,S Yates Blvd,,Chicago,60620,South Shore,Active,Personal Service,Beauty,False,,,,
Francis African Hair Braiding,2544,2017-01-02,E 79th St,,Chicago,60649,South Shore,Active,Personal Service,Beauty,False,,773-731-8524,,
Top 10 Nails & Spa,6942,,S Stony Island Ave,,Chicago,60649,South Shore,Active,Personal Service,Beauty,False,,872-818-5518,,
Perfect Pieces,7207,,S Exchange Ave,,Chicago,60649,South Shore,Active,Personal Service,Beauty,False,,872- 22-5 21,,
Zabeth Skin Care Studio,6930,,S South Shore Dr,,Chicago,60649,South Shore,Active,Personal Service,Beauty,True,,773-324-6936,,
Wonder Nails,1534,,E 75th St,,Chicago,60619,South Shore,Active,Personal Service,Beauty,False,,773-752-4950,,
Tracy's Nails,2138,,E 71st St,,Chicago,60649,South Shore,Active,Personal Service,Beauty,False,,773-288-7926,,
Top 71 Nails,2060,,E 71st St,,Chicago,60649,South Shore,Active,Personal Service,Beauty,False,,773-324-1168,,
TJ Nails,7621,,S Jeffery Ave,,Chicago,60649,South Shore,Active,Personal Service,Beauty,False,,773-221-0887,,
The Spot,1753,,E 75th St,,Chicago,60649,South Shore,Active,Personal Service,Beauty,False,,773-288-4882,,
Tee'z Barber & Beauty,1739,,E 75th St,,Chicago,60649,South Shore,Out of Business,Personal Service,Beauty,False,,773-418-1282,,
Tandria's Ultra Unique Hair Salon,1961,,E 73rd St,,Chicago,60649,South Shore,Active,Personal Service,Beauty,False,,773-752-6230,,
Spice Beauty Bar,7045,,S Jeffery Ave,,Chicago,60649,South Shore,Active,Personal Service,Beauty,False,,773-684-9274,,
Starlight Barber & Beauty Shop,1912,,E 79th St,,Chicago,60649,South Shore,Active,Personal Service,Beauty,False,,773-374-4592,,
Sideline Studio Hair Salon,1873,,E 71st St,,Chicago,60649,South Shore,Active,Personal Service,Beauty,False,,773-955-2773,,
Sidone African Hair Braiding,2237,,E 75th St,,Chicago,60649,South Shore,Active,Personal Service,Beauty,False,,773-715-5936,,
Russell's Barber Shop,2240,,E 73rd St,,Chicago,60649,South Shore,Active,Personal Service,Beauty,False,,773-752-7748,,
Readonia's Hair Boutique,7207,,S Constance Ave,,Chicago,60649,South Shore,Unknown,Personal Service,Beauty,True,,,,
Pretty Nails,7131,,S Jeffery Ave,J,Chicago,60649,South Shore,Active,Personal Service,Beauty,False,,773-643-2353,,
Private Practice Salon,2220,,E 75th St,,Chicago,60649,South Shore,Out of Business,Personal Service,Beauty,False,,773-375-0555,,
Professional Hair Braiding,2602,,E 79th St,,Chicago,60649,South Shore,Active,Personal Service,Beauty,False,,773-731-5955,,
Personal Touch,2204,,E 75th St,,Chicago,60649,South Shore,Active,Personal Service,Beauty,False,,773-375-7500,,
Original Man's Barber/Style Shop,1975,,E 73rd St,,Chicago,60649,South Shore,Active,Personal Service,Beauty,False,,773-288-4655,,
Olivia African Hair Braiding,7465,,S South Shore Dr,,Chicago,60649,South Shore,Unknown,Personal Service,Beauty,True,,,,
Mr James Hair Studio,2053,,E 75th St,,Chicago,60649,South Shore,Active,Personal Service,Beauty,False,,773-363-7750,,
Nail Spa,7344,,S Stony Island Ave,,Chicago,60649,South Shore,Active,Personal Service,Beauty,False,,,,
Nails By Judith,1448,,E 69th Pl,,Chicago,,South Shore,Active,Personal Service,Beauty,True,,773-493-9804,,
Nassi African Hair Braiding,2730,,E 79th St,,Chicago,60649,South Shore,Active,Personal Service,Beauty,False,,773-374-1753,,
Mary's African Hair Braiding,1956,,E 79th St,,Chicago,60649,South Shore,Active,Personal Service,Beauty,False,,773-375-5856,,
Mai's Africa Hair Brading,1977,,E 73rd St,,Chicago,60649,South Shore,Out of Business,Personal Service,Beauty,False,,773-288-8899,,
Major's Hair Care Salon,7625,,S Jeffery Ave,,Chicago,60649,South Shore,Active,Personal Service,Beauty,False,,773-375-0049,,
Mais Africa Hair Braiding,1974,,E 73rd St,,Chicago,60649,South Shore,Active,Personal Service,Beauty,False,,773-288-8899,,
Mena's Hair Design,2302,,E 71st St,,Chicago,60649,South Shore,Active,Personal Service,Beauty,False,,,,
Loonie's Young Cuts Barber Shop,1524,,E 69th Pl,,Chicago,,South Shore,Active,Personal Service,Beauty,False,,773-386-3865,,
Leverette's 3 Xclusive,7150,,S Exchange Ave,,Chicago,60649,South Shore,Active,Personal Service,Beauty,False,,773-960-6460,,
Lou Byrd Barber Shop,2012,,E 71st St,,Chicago,60649,South Shore,Active,Personal Service,Beauty,False,,773-324-0467,,
La Chateau,2808,,E 79th St,,Chicago,60649,South Shore,Out of Business,Personal Service,Beauty,False,,773-734-9184,,
Lacey's Beauty Salon,2236,,E 73rd St,,Chicago,60649,South Shore,Out of Business,Personal Service,Beauty,False,,773-752-5605,,
Laure's African Hair Braiding,2050,,E 71st St,,Chicago,60649,South Shore,Active,Personal Service,Beauty,False,,773-241-5169,,
JJ's Hair Salon,1959,,E 73rd St,,Chicago,60649,South Shore,Active,Personal Service,Beauty,False,,773-752-2457,,
Johariel's Hair Salon,7146,,S Exchange Ave,,Chicago,60649,South Shore,Active,Personal Service,Beauty,False,,773-901-9200,,
Jeffery Nails,7112,,S Jeffery Ave,,Chicago,60649,South Shore,Active,Personal Service,Beauty,False,,773-324-2044,,
Imani Hair Care Distributor,7032,,S Stony Island Ave,,Chicago,60649,South Shore,Out of Business,Personal Service,Beauty,False,,773-643-5000,,
Hailey's African Hair Braiding,7165,,S Exchange Ave,,Chicago,60649,South Shore,Active,Personal Service,Beauty,False,,773-375-4000,,
Hair 4u,7205,,S Exchange Ave,,Chicago,60649,South Shore,Active,Personal Service,Beauty,False,,773-221-8561,,
Hair Express,2057,,E 75th St,,Chicago,60649,South Shore,Active,Personal Service,Beauty,False,,773-684-9033,,
Hair Salon,2422,,E 75th St,,Chicago,60649,South Shore,Active,Personal Service,Beauty,False,,,,
Hair the Barber Shop,2220,,E 79th St,,Chicago,60649,South Shore,Active,Personal Service,Beauty,False,,773-734-0708,,
Hair Unique,1754,,E 79th St,Ste 1,Chicago,60649,South Shore,Active,Personal Service,Beauty,False,,773-978-1379,,
Gatlin & Chambers,7152,,S Exchange Ave,,Chicago,60649,South Shore,Active,Personal Service,Beauty,False,,773-734-9396,,
Gordy's Barber Shop / Beauty Shop,1407,,E 75th St,,Chicago,60619,South Shore,Active,Personal Service,Beauty,False,,773-955-1955,,
Final Touch Hair Studio,2224,,E 75th St,,Chicago,60649,South Shore,Out of Business,Personal Service,Beauty,False,,773-661-2993,,
Coleman Brothers Barber Shop,6802,,S Stony Island Ave,,Chicago,60649,South Shore,Out of Business,Personal Service,Beauty,False,,773-363-8171,,
Guyse Salon of Beauty,2309,,E 71st St,,Chicago,60649,South Shore,Active,Personal Service,Beauty,False,,773-684-9188,,
Hay Good Looking,2732,,E 79th St,,Chicago,60649,South Shore,Active,Personal Service,Beauty,False,,773-374-2501,,
Herbert's Natural Cuts and Beauty Salon,7854,,S Jeffery Ave,,Chicago,60649,South Shore,Active,Personal Service,Beauty,False,,773-734-9611,,
House of Nia Beauty Salon,2044,,E 79th St,,Chicago,60649,South Shore,Active,Personal Service,Beauty,False,,,,
Dubose Barbershop,2225,,E 71st St,,Chicago,60649,South Shore,Active,Personal Service,Beauty,False,,,,
J. Edward Salon and Barbershop,6949,,S Stony Island Ave,,Chicago,60649,South Shore,Active,Personal Service,Beauty,False,,312-833-1180,,
Egyptian Hair Design,6908,,S Stony Island Ave,,Chicago,60637,South Shore,Active,Personal Service,Beauty,False,,773-256-1271,,
Fatou Hair Braiding,7128,,S Jeffery Ave,,Chicago,60649,South Shore,Active,Personal Service,Beauty,False,,773-363-5834,,
Complete Hair Studio,2628,,E 75th St,,Chicago,60649,South Shore,Active,Personal Service,Beauty,False,,773-703-6107,,
Cut It Out Curt,1741,,E 71st St,,Chicago,60649,South Shore,Active,Personal Service,Beauty,False,,773-256-1571,,
Da Cuttin Image,7038,,S Stony Island Ave,,Chicago,60649,South Shore,Active,Personal Service,Beauty,False,,773-288-0584,,
J J's Hair Salon,1959,,E 73rd St,,Chicago,60649,South Shore,Active,Personal Service,Beauty,True,,,,
Bijou Hair Braiding,2110,,E 71st St,,Chicago,60649,South Shore,Active,Personal Service,Beauty,False,,773-324-4405,,
Beauty Sisters Nail Spa,1836,,E 79th St,,Chicago,60649,South Shore,Active,Personal Service,Beauty,False,,773-359-4174,,
Best African Hair Braiding by Faso Didi,2218,,E 79th St,,Chicago,60649,South Shore,Active,Personal Service,Beauty,False,,773-221-6264,,
The Original Man's Grooming Lounge,2315,,E 71st St,,Chicago,60649,South Shore,Active,Personal Service,Beauty,False,,,,
Attitudes Total Hair Care,1526,,E 69th Pl,,Chicago,,South Shore,Active,Personal Service,Beauty,False,,,,
3 Diamond Nails,1867,,E 71st St,,Chicago,60649,South Shore,Active,Personal Service,Beauty,False,,773-966-6861,,
Alon,7112,,S Yates Blvd,B,Chicago,60649,South Shore,Active,Personal Service,Beauty,False,,,,
Angie's Hair Salon,1922,,E 71st St,,Chicago,60649,South Shore,Active,Personal Service,Beauty,False,,773-947-9305,,
Ink Slinger's Tattoos,6902,,S Stony Island Ave,,Chicago,60637,South Shore,Active,Personal Service,Body art,False,,773-256-0471,,
Cold as Ice,1838,,E 79th St,,Chicago,60649,South Shore,Active,Personal Service,Body art,False,,872-228-0183,,
Village Well Laundromat,2126,,E 75th St,,Chicago,60649,South Shore,Active,Personal Service,"Laundry, tailor",False,,773-241-7524,,
Yates Cleaners,7118,,S Yates Blvd,,Chicago,60649,South Shore,Active,Personal Service,"Laundry, tailor",False,,,,
Spotless Solutions,7152,,W 71st Pl,,Chicago,,South Shore,Unknown,Personal Service,"Laundry, tailor",False,Address is likely wrong,,,
Quad Valet Cleaners,6700,,S South Shore Dr,,Chicago,60649,South Shore,Active,Personal Service,"Laundry, tailor",True,,773-752-1732,,
Sew Fine Ethnic and Cultural Designs,1333,,E 75th St,Fl 1,Chicago,60619,South Shore,Out of Business,Personal Service,"Laundry, tailor",False,,773-363-1547,,
Shore Cleaners,1946,,E 79th St,,Chicago,60649,South Shore,Out of Business,Personal Service,"Laundry, tailor",False,,773-375-0933,,
Spin Dry Laundromat,2416,,E 75th St,,Chicago,60649,South Shore,Active,Personal Service,"Laundry, tailor",False,,,,
Spincycle,7352,,S Stony Island Ave,,Chicago,60649,South Shore,Active,Personal Service,"Laundry, tailor",False,,773-955-2655,,
Stony Laundry,6808,,S Stony Island Ave,,Chicago,60649,South Shore,Active,Personal Service,"Laundry, tailor",False,,,,
Sudz Coin Laundry,2660,,E 79th St,,Chicago,60649,South Shore,Active,Personal Service,"Laundry, tailor",False,,,,
Sudzone Laundromat,1645,,E 71st St,,Chicago,60649,South Shore,Active,Personal Service,"Laundry, tailor",False,,,,
J R Laundromat,2601,,E 75th St,,Chicago,60649,South Shore,Active,Personal Service,"Laundry, tailor",False,,773-375-2222,,
Lake Terrace Cleaners,7337,,S South Shore Dr,,Chicago,60649,South Shore,Active,Personal Service,"Laundry, tailor",False,,,,
Joy Cleaners,2054,,E 71st St,,Chicago,60649,South Shore,Active,Personal Service,"Laundry, tailor",False,,773-684-0770,,
Fox Cleaners Company,7629,,S Jeffery Ave,,Chicago,60649,South Shore,Active,Personal Service,"Laundry, tailor",False,,773-221-3434,,
Lee Cleaners,7857,,S Yates Blvd,,Chicago,60649,South Shore,Active,Personal Service,"Laundry, tailor",False,,773-721-5152,,
Novelty Stitching & Embroidery,7807,,S Oglesby Ave,,Chicago,60649,South Shore,Unknown,Personal Service,"Laundry, tailor",True,,,,
Paxton Laundromat,2154,,E 79th St,,Chicago,60649,South Shore,Out of Business,Personal Service,"Laundry, tailor",False,,773-374-6171,,
Perfection Cleaners,1920,,E 71st St,,Chicago,60649,South Shore,Out of Business,Personal Service,"Laundry, tailor",False,,773-363-7400,,
Fabricare Center,7633,,S Jeffery Ave,,Chicago,60649,South Shore,Active,Personal Service,"Laundry, tailor",False,,773-221-6003,,
Cattlett's Cleaners,7337,,S South Shore Dr,,Chicago,60649,South Shore,Unknown,Personal Service,"Laundry, tailor",True,,,,
IC Shine,2530,,E 75th St,,Chicago,60649,South Shore,Active,Personal Service,"Laundry, tailor",False,,773-731-1220,,
Cleaner Quality One Hour,7163,,S Exchange Ave,,Chicago,60649,South Shore,Active,Personal Service,"Laundry, tailor",False,,773-359-4826,,
City Cleaners,7159,,S Stony Island Ave,,Chicago,60649,South Shore,Active,Personal Service,"Laundry, tailor",False,,773-684-2121,,
Fletchen New Laundry Two,1346,,E 75th St,,Chicago,60619,South Shore,Active,Personal Service,"Laundry, tailor",False,,312-458-9334,,
Bank of America,7131,,S Stony Island Ave,,Chicago,60649,South Shore,Active,"Financial, Insurance, Real Estate, Legal, and Professional",Bank,False,,773-363-5412,,
Chase,7131,,S Jeffery Ave,E,Chicago,60649,South Shore,Active,"Financial, Insurance, Real Estate, Legal, and Professional",Bank,False,,773-493-5103,,
Fifth Third Bank,1606,,E 79th St,,Chicago,60649,South Shore,Active,"Financial, Insurance, Real Estate, Legal, and Professional",Bank,False,,,,
PNC Bank,7300,,S Stony Island Ave,,Chicago,60649,South Shore,Active,"Financial, Insurance, Real Estate, Legal, and Professional",Bank,False,,773-955-9162,,
TCF Bank,7530,,S Stony Island Ave,,Chicago,60619,South Shore,Active,"Financial, Insurance, Real Estate, Legal, and Professional",Bank,False,,773-643-1519,,
QLB Accounting,7148,,S Exchange Ave,,Chicago,60638,South Shore,Active,"Financial, Insurance, Real Estate, Legal, and Professional",Accountant,False,,773-599-0752,,
See English Accounting Tax Services,1328,,E 75th St,,Chicago,60619,South Shore,Active,"Financial, Insurance, Real Estate, Legal, and Professional",Accountant,False,,773-324-3939,,
Shirley A Brown Tax Accountant,2231,,E 67th St,Apt 10A,Chicago,60649,South Shore,Unknown,"Financial, Insurance, Real Estate, Legal, and Professional",Accountant,True,,773-643-5221,,
Speedy Refunds Tax Service,1968,,E 73rd St,,Chicago,60649,South Shore,Active,"Financial, Insurance, Real Estate, Legal, and Professional",Accountant,False,,773-544-6495,,
Taxes Etc.,2311,,E 71st St,,Chicago,60649,South Shore,Active,"Financial, Insurance, Real Estate, Legal, and Professional",Accountant,False,,773-493-1040,,
Jackson Hewitt Tax Service,1953,,E 71st St,,Chicago,60649,South Shore,Out of Business,"Financial, Insurance, Real Estate, Legal, and Professional",Accountant,False,,773-324-7667,,
Jackson Hewitt Tax Services,6800,,S Stony Island Ave,,Chicago,60649,South Shore,Active,"Financial, Insurance, Real Estate, Legal, and Professional",Accountant,False,,,,
Kevin McGee CPA,1809,,E 71st St,,Chicago,60649,South Shore,Active,"Financial, Insurance, Real Estate, Legal, and Professional",Accountant,False,,773-752-6370,,
Madison Income Tax Service,2665,,E 77th St,,Chicago,60649,South Shore,Active,"Financial, Insurance, Real Estate, Legal, and Professional",Accountant,True,,773-978-2193,,
Liberty Tax Service,1916,,E 79th St,,Chicago,60649,South Shore,Out of Business,"Financial, Insurance, Real Estate, Legal, and Professional",Accountant,False,,773-581-2500,,
Liberty Tax Service,7116,,S Jeffery Ave,,Chicago,60649,South Shore,Active,"Financial, Insurance, Real Estate, Legal, and Professional",Accountant,False,,773-363-5950,,
Major Tax,1735,,E 71st St,,Chicago,60649,South Shore,Out of Business,"Financial, Insurance, Real Estate, Legal, and Professional",Accountant,False,,773-241-7600,,
Murphy Tax Service,1500,,E 69th St,,Chicago,,South Shore,Active,"Financial, Insurance, Real Estate, Legal, and Professional",Accountant,True,,,,
Home Tax Service,2454,,E 74th St,,Chicago,60649,South Shore,Unknown,"Financial, Insurance, Real Estate, Legal, and Professional",Accountant,True,,,,
H&R Block,2101,,E 71st St,Ste B,Chicago,60649,South Shore,Active,"Financial, Insurance, Real Estate, Legal, and Professional",Accountant,False,,773-643-0715,,
Everette Accounting Services,2528,,E 75th St,,Chicago,60649,South Shore,Active,"Financial, Insurance, Real Estate, Legal, and Professional",Accountant,False,,773-734-1992,,
DJW Tax Service,1723,,E 71st St,,Chicago,60649,South Shore,Out of Business,"Financial, Insurance, Real Estate, Legal, and Professional",Accountant,False,,773-288-8080,,
Dilworth's Fax Tax Service,2139,,E 70th St,,Chicago,60649,South Shore,Unknown,"Financial, Insurance, Real Estate, Legal, and Professional",Accountant,True,,,,
Creative Tax Solutions,6906,,S Stony Island Ave,,Chicago,60637,South Shore,Out of Business,"Financial, Insurance, Real Estate, Legal, and Professional",Accountant,False,,773-891-1305,,
Bell Tax Service,6945,,S Stony Island Ave,,Chicago,60649,South Shore,Active,"Financial, Insurance, Real Estate, Legal, and Professional",Accountant,False,,773-994-8944,,
Apex Tax Service,2202,,E 75th St,,Chicago,60649,South Shore,Active,"Financial, Insurance, Real Estate, Legal, and Professional",Accountant,False,,773-731-0406,,
75th & Exchange Currency Exchange,2640,,E 75th St,,Chicago,60649,South Shore,Active,"Financial, Insurance, Real Estate, Legal, and Professional",Currency exchange,False,,773-721-8400,,
75th and Stony Island Currency Exchange,1611,,E 75th St,,Chicago,60649,South Shore,Active,"Financial, Insurance, Real Estate, Legal, and Professional",Currency exchange,False,,773-684-5821,,
Check Changers,7100,,S Jeffery Ave,,Chicago,60649,South Shore,Active,"Financial, Insurance, Real Estate, Legal, and Professional",Currency exchange,False,,,,
Fast Checks,7458,,S Exchange Ave,,Chicago,60649,South Shore,Active,"Financial, Insurance, Real Estate, Legal, and Professional",Currency exchange,False,,773-375-2274,,
Stony Island Currency Exchange,6714,,S Stony Island Ave,,Chicago,60637,South Shore,Active,"Financial, Insurance, Real Estate, Legal, and Professional",Currency exchange,False,,773-363-0207,,
Payday Loan Store,2132,,E 71st St,,Chicago,60649,South Shore,Active,"Financial, Insurance, Real Estate, Legal, and Professional",Payday loan,False,,773-493-3000,,
71st and Jeffery Loans,7100,,S Jeffery Ave,,Chicago,60649,South Shore,Active,"Financial, Insurance, Real Estate, Legal, and Professional",Payday loan,False,,773-324-9900,,
D'Angelo's Pawner and Jewelry,6920,,S Stony Island Ave,,Chicago,60637,South Shore,Active,"Financial, Insurance, Real Estate, Legal, and Professional",Pawn shop,False,,773-643-6955,,
Day Investment Group,2531,,E 73rd St,,Chicago,60649,South Shore,Out of Business,"Financial, Insurance, Real Estate, Legal, and Professional",Other financial,True,,773-375-0478,,
Derrick Walker International Limited,7119,,S Oglesby Ave,,Chicago,60649,South Shore,Active,"Financial, Insurance, Real Estate, Legal, and Professional",Other financial,True,,773-285-0100,,
F And S Investment Group,7726,,S Kingston Ave,,Chicago,60649,South Shore,Out of Business,"Financial, Insurance, Real Estate, Legal, and Professional",Other financial,True,,773-375-9900,,
Free Financial,1715,,E 67th St,,Chicago,60649,South Shore,Unknown,"Financial, Insurance, Real Estate, Legal, and Professional",Other financial,True,,,,
Nautilus Investment,6731,,S Jeffery Ave,,Chicago,60649,South Shore,Active,"Financial, Insurance, Real Estate, Legal, and Professional",Other financial,True,,773-336-2781,,
New Life Medical Billing 1,6700,,S Oglesby Ave,,Chicago,60649,South Shore,Unknown,"Financial, Insurance, Real Estate, Legal, and Professional",Other financial,True,,,,
Overflow Financial Services,2363,,E 70th St,,Chicago,,South Shore,Out of Business,"Financial, Insurance, Real Estate, Legal, and Professional",Other financial,True,,773-324-5415,,
P2 Funding,6806,,S Clyde Ave,,Chicago,,South Shore,Active,"Financial, Insurance, Real Estate, Legal, and Professional",Other financial,True,,773-493-8979,,
JDR Real Estate Investors,7019,,S Merrill Ave,,Chicago,60649,South Shore,Out of Business,"Financial, Insurance, Real Estate, Legal, and Professional",Other financial,True,,773-955-9080,,
Harris Note Investors,2772,,E 75th St,Apt 2A,Chicago,60649,South Shore,Out of Business,"Financial, Insurance, Real Estate, Legal, and Professional",Other financial,True,,,,
Illinois Title Loans,7013,,S Stony Island Ave,,Chicago,60649,South Shore,Active,"Financial, Insurance, Real Estate, Legal, and Professional",Other financial,False,,773-241-5394,,
Rean Investment,7027,,S Euclid Ave,,Chicago,60649,South Shore,Unknown,"Financial, Insurance, Real Estate, Legal, and Professional",Other financial,True,,773-667-4679,,
Regal Investments,2339,,E 72nd St,,Chicago,,South Shore,Active,"Financial, Insurance, Real Estate, Legal, and Professional",Other financial,True,,773-324-8575,,
State Farm Insurance,7639,,S Jeffery Ave,,Chicago,60649,South Shore,Out of Business,"Financial, Insurance, Real Estate, Legal, and Professional",Insurance agency,False,,773-933-0066,,
State Farm Insurance,6945,,S Stony Island Ave,,Chicago,60649,South Shore,Active,"Financial, Insurance, Real Estate, Legal, and Professional",Insurance agency,False,,773-947-9850,,
Insurance Depot,1952,,E 79th St,,Chicago,60649,South Shore,Active,"Financial, Insurance, Real Estate, Legal, and Professional",Insurance agency,False,,773-437-4159,,
Insure One,1801,,E 71st St,,Chicago,60649,South Shore,Active,"Financial, Insurance, Real Estate, Legal, and Professional",Insurance agency,False,,773-493-8828,,
Northwest Insurance Network,7356,,S Stony Island Ave,,Chicago,60649,South Shore,Active,"Financial, Insurance, Real Estate, Legal, and Professional",Insurance agency,False,,773-493-1900,,
Frank Russo New York Life Insurance,1809,,E 71st St,Ste 206,Chicago,60649,South Shore,Active,"Financial, Insurance, Real Estate, Legal, and Professional",Insurance agency,False,,,,
Acceptance Auto Insurance,6716,,S Stony Island Ave,,Chicago,60637,South Shore,Active,"Financial, Insurance, Real Estate, Legal, and Professional",Insurance agency,False,,773-256-0200,,
Alfred Williams & Associates,7136,,S Coles Ave,Apt 1,Chicago,60649,South Shore,Unknown,"Financial, Insurance, Real Estate, Legal, and Professional",Lawyer's office,True,,773-485-5809,,
Delores E Robinson Attorney At Law,7756,,S Merrill Ave,,Chicago,60649,South Shore,Unknown,"Financial, Insurance, Real Estate, Legal, and Professional",Lawyer's office,True,,773-771-8028,,
Joshua Rose Attorney,7600,,S Merrill Ave,,Chicago,60649,South Shore,Unknown,"Financial, Insurance, Real Estate, Legal, and Professional",Lawyer's office,True,Number did not work,773-933-7233,,
Gale Jacoby Acquisitions,1650,,E 70th St,,Chicago,,South Shore,Active,"Financial, Insurance, Real Estate, Legal, and Professional",Lawyer's office,True,,773-288-8433,,
Law Offices of Barclay Dixon and Smith Dixon and Smith PC,1817,,E 71st St,,Chicago,60649,South Shore,Out of Business,"Financial, Insurance, Real Estate, Legal, and Professional",Lawyer's office,False,,773-451-8638,,
Amanda Brown,7436,,S Kingston Ave,,Chicago,60649,South Shore,Unknown,"Financial, Insurance, Real Estate, Legal, and Professional",Other legal,True,,,,
Adria Management,6956,,S Jeffery Ave,,Chicago,60649,South Shore,Active,"Financial, Insurance, Real Estate, Legal, and Professional",Property service office,False,,773-955-0701,,
Astoria Properties,7203,,S Exchange Ave,,Chicago,60649,South Shore,Active,"Financial, Insurance, Real Estate, Legal, and Professional",Property service office,False,,773-410-0958,,
A Lott Properties,6826,,S Chappel Ave,,Chicago,60649,South Shore,Out of Business,"Financial, Insurance, Real Estate, Legal, and Professional",Property service office,True,,773-241-5688,,
A Realty,7020,,S Jeffery Ave,,Chicago,60649,South Shore,Active,"Financial, Insurance, Real Estate, Legal, and Professional",Property service office,True,,,,
Anchor Realty Group,7241,,S Phillips Ave,,Chicago,,South Shore,Active,"Financial, Insurance, Real Estate, Legal, and Professional",Property service office,False,,,,
Dexter B Jones,1528,,E 74th Pl,,Chicago,,South Shore,Active,"Financial, Insurance, Real Estate, Legal, and Professional",Property service office,True,,773-550-3194,,
7350 S Phillips Partners,7350,,S Phillips Ave,,Chicago,,South Shore,Active,"Financial, Insurance, Real Estate, Legal, and Professional",Property service office,True,,773-933-0161,,
Citadel Apartments,7219,,S Yates Blvd,,Chicago,60649,South Shore,Active,"Financial, Insurance, Real Estate, Legal, and Professional",Property service office,True,,773-221-2336,,
Frontier Realty Group,1733,,E 75th St,,Chicago,60649,South Shore,Active,"Financial, Insurance, Real Estate, Legal, and Professional",Property service office,False,,773-288-4000,,
Dream Spots Leasing,2116,,E 71st St,,Chicago,60649,South Shore,Active,"Financial, Insurance, Real Estate, Legal, and Professional",Property service office,False,,773-633-2369,,
Emerging Light Properties Company,2333,,E 70th Pl,Unit 7,Chicago,60649,South Shore,Unknown,"Financial, Insurance, Real Estate, Legal, and Professional",Property service office,True,,,,
General Realty and Building Corporation,2048,,E 75th St,Ste Frnt,Chicago,60649,South Shore,Active,"Financial, Insurance, Real Estate, Legal, and Professional",Property service office,False,,773-955-0900,,
Genesis Cooperative Housing,7019,,S Merrill Ave,,Chicago,60649,South Shore,Out of Business,"Financial, Insurance, Real Estate, Legal, and Professional",Property service office,True,,773-324-9700,,
Hamilton Realty Company,7847,,S Crandon Ave,,Chicago,60649,South Shore,Active,"Financial, Insurance, Real Estate, Legal, and Professional",Property service office,True,,773-374-5100,,
Kly Development,1310,,E 75th St,,Chicago,60619,South Shore,Out of Business,"Financial, Insurance, Real Estate, Legal, and Professional",Property service office,False,,312-415-6308,,
JLG Management,6701,,S Crandon Ave,,Chicago,60649,South Shore,Unknown,"Financial, Insurance, Real Estate, Legal, and Professional",Property service office,True,,,,
Kbm Realty Services,7827,,S South Shore Dr,,Chicago,60649,South Shore,Unknown,"Financial, Insurance, Real Estate, Legal, and Professional",Property service office,True,,773-307-8419,,
Jack Wayne Realty,7642,,S Colfax Ave,,Chicago,60649,South Shore,Active,"Financial, Insurance, Real Estate, Legal, and Professional",Property service office,True,,773-734-8537,,
JC & Associates Solutions,7405,,S Crandon Ave,,Chicago,60649,South Shore,Unknown,"Financial, Insurance, Real Estate, Legal, and Professional",Property service office,True,,773-428-2302,,
Omega 2000 Real Estate,7309,,S Dante Ave,,Chicago,60619,South Shore,Unknown,"Financial, Insurance, Real Estate, Legal, and Professional",Property service office,True,,,,
Mat Welcome Realty,7750,,S Chappel Ave,,Chicago,60649,South Shore,Out of Business,"Financial, Insurance, Real Estate, Legal, and Professional",Property service office,True,,,,
Nationwide Property Rentals,2011,,E 75th St,Ste 114,Chicago,60649,South Shore,Out of Business,"Financial, Insurance, Real Estate, Legal, and Professional",Property service office,False,,773-288-0560,,
Laruga Real Estate,2333,,E 70th Pl,,Chicago,60649,South Shore,Active,"Financial, Insurance, Real Estate, Legal, and Professional",Property service office,True,,773-726-2915,,
Maroza's Real Estate Management,7220,,S South Shore Dr,,Chicago,60649,South Shore,Out of Business,"Financial, Insurance, Real Estate, Legal, and Professional",Property service office,True,,773-375-1360,,
Pangea Real Estate,2231,,E 71st St,,Chicago,60649,South Shore,Active,"Financial, Insurance, Real Estate, Legal, and Professional",Property service office,False,,888-993-1715,,
Pdmm Limited,2201,,E 70th Pl,Ste Ofc,Chicago,60649,South Shore,Unknown,"Financial, Insurance, Real Estate, Legal, and Professional",Property service office,True,,,,
Promiseland Real Estate,1423,,E 72nd Pl,,Chicago,60619,South Shore,Unknown,"Financial, Insurance, Real Estate, Legal, and Professional",Property service office,True,,,,
Special Concepts Realty,7645,,S Coles Ave,,Chicago,60649,South Shore,Out of Business,"Financial, Insurance, Real Estate, Legal, and Professional",Property service office,True,,,,
Solution Property Management,2827,,E 76th Pl,,Chicago,,South Shore,Out of Business,"Financial, Insurance, Real Estate, Legal, and Professional",Property service office,True,,,,
Parkland Condominiums,6701,,S Crandon Ave,Apt 2B,Chicago,60649,South Shore,Active,"Financial, Insurance, Real Estate, Legal, and Professional",Property service office,False,,773-667-7275,,
Ruff's 1 Stop Real Estate,1459,,E 76th St,,Chicago,60619,South Shore,Active,"Financial, Insurance, Real Estate, Legal, and Professional",Property service office,True,,773-768-8285,,
Real Realty,3637,,E 74th St,,Chicago,60649,South Shore,Out of Business,"Financial, Insurance, Real Estate, Legal, and Professional",Property service office,False,,,,
Realtor Amber N Alexander,2215,,E 69th St,,Chicago,,South Shore,Out of Business,"Financial, Insurance, Real Estate, Legal, and Professional",Property service office,True,,,,
Homes and Apartments,2342,,E 75th St,,Chicago,60649,South Shore,Active,"Financial, Insurance, Real Estate, Legal, and Professional",Property service office,True,,,,
WF3 Homes,6840,,S Bennett Ave,,Chicago,60649,South Shore,Unknown,"Financial, Insurance, Real Estate, Legal, and Professional",Property service office,True,,773-848-5517,,
The Parkways,6718,,S East End Ave,,Chicago,60649,South Shore,Active,"Financial, Insurance, Real Estate, Legal, and Professional",Property service office,False,,773-493-7300,,
"The Inverbrass Funds, Llc",3008,,E Cheltenham Pl,,Chicago,,South Shore,Active,"Financial, Insurance, Real Estate, Legal, and Professional",Property service office,False,,773-731-9293,,
Tucker Management,7834,,S Essex Ave,,Chicago,60649,South Shore,Unknown,"Financial, Insurance, Real Estate, Legal, and Professional",Property service office,True,,,,
Trico Realty Group,1935,,E 71st St,,Chicago,60649,South Shore,Out of Business,"Financial, Insurance, Real Estate, Legal, and Professional",Property service office,True,,773-846-5000,,
Unknown,7001,,S Chappel Ave,,Chicago,60649,South Shore,Out of Business,"Financial, Insurance, Real Estate, Legal, and Professional",Property service office,True,,312-315-7293,,
Walking With Intentions,2232,,E 68th St,Apt 1,Chicago,,South Shore,Active,"Financial, Insurance, Real Estate, Legal, and Professional",Other professional,True,,,,
Vandell Communications,1727,,E 71st St,,Chicago,60649,South Shore,Out of Business,"Financial, Insurance, Real Estate, Legal, and Professional",Other professional,False,,773-663-4182,,
Sir Designs,2202,,E 70th Pl,,Chicago,60649,South Shore,Unknown,"Financial, Insurance, Real Estate, Legal, and Professional",Other professional,True,,773-324-6682,,
Royce Glamour Productions,7363,,S South Shore Dr,Apt 207,Chicago,60649,South Shore,Active,"Financial, Insurance, Real Estate, Legal, and Professional",Other professional,True,,773-734-2739,,
Taylor Made Industries,1411,,E 72nd Pl,,Chicago,60619,South Shore,Unknown,"Financial, Insurance, Real Estate, Legal, and Professional",Other professional,True,Number is for the business but the house have a for rent sign ,773-895-1855,,
R T Starks Associates,6700,,S Crandon Ave,Apt 2A,Chicago,60649,South Shore,Active,"Financial, Insurance, Real Estate, Legal, and Professional",Other professional,True,,773-684-1732,,
Patrick and Associates Detective Agency,1805,,E 71st St,,Chicago,60649,South Shore,Active,"Financial, Insurance, Real Estate, Legal, and Professional",Other professional,False,,773-288-6950,,
JD Results,7840,,S Bennett Ave,,Chicago,60649,South Shore,Out of Business,"Financial, Insurance, Real Estate, Legal, and Professional",Other professional,True,,708-969-1906,,
Information Systems Consulting,6700,,S Oglesby Ave,,Chicago,60649,South Shore,Unknown,"Financial, Insurance, Real Estate, Legal, and Professional",Other professional,True,,,,
Jeanne Larzalere Bloom,2666,,E 73rd St,,Chicago,60649,South Shore,Active,"Financial, Insurance, Real Estate, Legal, and Professional",Other professional,True,,773-221-4545,,
John O Lewis Architecture,7128,,S Oglesby Ave,,Chicago,60649,South Shore,Active,"Financial, Insurance, Real Estate, Legal, and Professional",Other professional,True,,773-955-2199,,
Houston and Associates,1805,,E 71st St,,Chicago,60649,South Shore,Active,"Financial, Insurance, Real Estate, Legal, and Professional",Other professional,False,,773-952-6908,,
DJW Information Service,1753,,E 67th St,,Chicago,60649,South Shore,Out of Business,"Financial, Insurance, Real Estate, Legal, and Professional",Other professional,True,,773-288-5980,,
Consultant Network,7630,,S Essex Ave,,Chicago,60649,South Shore,Unknown,"Financial, Insurance, Real Estate, Legal, and Professional",Other professional,True,,,,
Consulting Rx,2216,,E 70th Pl,Unit 208,Chicago,60649,South Shore,Unknown,"Financial, Insurance, Real Estate, Legal, and Professional",Other professional,True,,773-454-2175,,
Circle Group,6901,,S Oglesby Ave,Apt 7B,Chicago,60649,South Shore,Unknown,"Financial, Insurance, Real Estate, Legal, and Professional",Other professional,True,,,,
Anthony Gee Specializing in Bank Regulatory Compliance,7400,,S Paxton Ave,,Chicago,60649,South Shore,Out of Business,"Financial, Insurance, Real Estate, Legal, and Professional",Other professional,True,,773-363-0545,,
Ark Andre Richardson King Designers,6700,,S Oglesby Ave,,Chicago,60649,South Shore,Active,"Financial, Insurance, Real Estate, Legal, and Professional",Other professional,True,,773-667-5963,,
Baltis Architects,6755,,S Crandon Ave,Unit 2,Chicago,60649,South Shore,Active,"Financial, Insurance, Real Estate, Legal, and Professional",Other professional,True,,773-955-0500,,
Am Marketing Center,7770,,S South Shore Dr,,Chicago,60649,South Shore,Unknown,"Financial, Insurance, Real Estate, Legal, and Professional",Other professional,True,,773-704-9173,,
Jackson Park Hospital,7531,,S Stony Island Ave,,Chicago,60649,South Shore,Active,Health Services,Hospital,False,,773-947-7500,,
Jackson Park Hospital Emergency Room,7531,,S Stony Island Ave,,Chicago,60649,South Shore,Active,Health Services,ER,False,,773-947-7610,,
Integrated Medical Centers,6930,,S South Shore Dr,,Chicago,60649,South Shore,Active,Health Services,Out-patient,False,,773-955-7000,,
Handy Medical and Surgical Center,2337,,E 71st St,,Chicago,60649,South Shore,Out of Business,Health Services,Out-patient,False,,773-643-2250,,
Holt Podiatry Associates,7141,,S Jeffery Ave,,Chicago,60649,South Shore,Active,Health Services,Out-patient,False,,773-493-4300,,
ICL Clinic,1950,,E 75th St,,Chicago,60649,South Shore,Out of Business,Health Services,Out-patient,False,,773-684-8422,,
Fresenius Medical Care,2420,,E 79th St,,Chicago,60649,South Shore,Active,Health Services,Out-patient,False,,773-374-9002,,
Frank Bearden MD MD,2011,,E 75th St,Ste 102,Chicago,60649,South Shore,Active,Health Services,Out-patient,False,,773-752-2483,,
Dr Amhad,2117,,E 71st St,,Chicago,60649,South Shore,Active,Health Services,Out-patient,False,,773-752-1506,,
Wu Family Medical Center,2306,,E 75th St,,Chicago,60649,South Shore,Active,Health Services,Out-patient,False,,773-731-0014,,
Newvision Medical Stabilization Service,7507,,S Stony Island Ave,,Chicago,60649,South Shore,Active,Health Services,Out-patient,False,,773-947-7347,,
Pilsen Wellness Center,2230,,E 71st St,,Chicago,60649,South Shore,Active,Health Services,Out-patient,False,,773-927-6987,,
Rosenblum Medical Center,2123,,E 71st St,St,Chicago,60649,South Shore,Active,Health Services,Out-patient,False,,773-684-9464,,
JPH Family Medical Center,1625,,E 75th St,,Chicago,60649,South Shore,Active,Health Services,Out-patient,False,,773-947-7310,,
Oswald Mowatt MD MD SC,2011,,E 75th St,Ste 106,Chicago,60649,South Shore,Active,Health Services,Out-patient,False,,773-955-7500,,
Mendi Chanda MD MD SC,7257,,S Jeffery Ave,,Chicago,60649,South Shore,Out of Business,Health Services,Out-patient,False,,773-684-0002,,
Kaliana Medical Clinic,1952,,E 73rd St,,Chicago,60649,South Shore,Active,Health Services,Out-patient,False,,773-493-5600,,
Family Medical Center,7201,,S Stony Island Ave,,Chicago,60649,South Shore,Active,Health Services,Out-patient,False,,773-940-1612,,
Billie Adams MD MD,2011,,E 75th St,Ste 101,Chicago,60649,South Shore,Active,Health Services,Out-patient,False,,773-288-4824,,
Acme Orthotic & Prosthetic Laboratories,1840,,E 71st St,Ste 40,Chicago,60649,South Shore,Active,Health Services,Out-patient,False,,773-363-0400,,
Al Shafa Health Care Services,1957,,E 71st St,,Chicago,60649,South Shore,Out of Business,Health Services,Out-patient,False,,773-324-9600,,
University of Illinois Medical Center,7131,,S Jeffery Ave,,Chicago,60638,South Shore,Active,Health Services,Out-patient,False,,,,
Urgent Health Care - Dr. Bearden,2011,,E 75th St,L5,Chicago,60649,South Shore,Active,Health Services,Out-patient,False,,773-752-2483,,
University of Chicago Medical Center - Outpatient Health Centers Senior,7101,,S Exchange Ave,,Chicago,60649,South Shore,Active,Health Services,Out-patient,False,,773-702-8840,,
University of Illinois Mile Square Health Center - South Shore,7131,,S Jeffery Ave,,Chicago,60649,South Shore,Active,Health Services,Out-patient,False,,773-256-0526,,
VLR Family Health Center,7140,,S Exchange Ave,,Chicago,60649,South Shore,Active,Health Services,Out-patient,False,,773-221-3078,,
Solomon Liburd MD MD,2011,,E 75th St,,Chicago,60649,South Shore,Active,Health Services,Out-patient,False,,,,
Sky Alternative Medicine Pain and Laser Clinic,1970,,E 73rd St,,Chicago,60649,South Shore,Active,Health Services,Out-patient,False,,773-308-4412,,
Access Rehab Centro Medico,1952,,E 73rd St,,Chicago,60649,South Shore,Active,Health Services,Chiropractor,False,,773-363-8710,,
Jus Do It,7601,,S Merrill Ave,,Chicago,60649,South Shore,Unknown,Health Services,Alternative medicine,True,,,,
Zion's Wellness Center,7209,,S Exchange Ave,,Chicago,60649,South Shore,Active,Health Services,Alternative medicine,False,,773-819-0894,,
Attala Dental,2117,,E 71st St,,Chicago,60649,South Shore,Active,Health Services,Dentist,False,,773-288-0225,,
Family Dental Clinic,1952,,E 73rd St,,Chicago,60649,South Shore,Active,Health Services,Dentist,False,Still active,773-947-8664,,
Destiny Dental,2101,,E 71st St,St Ste C,Chicago,60649,South Shore,Active,Health Services,Dentist,False,,773-241-7000,,
MGL Dental,7141,,S Jeffery Ave,Suite 12,Chicago,60649,South Shore,Active,Health Services,Dentist,False,,773-324-4325,,
Pearle Vision,7257,,S Jeffery Ave,,Chicago,60649,South Shore,Active,Health Services,Eye,False,,773-752-3900,,
South Shore Eye Center,7257,,S Jeffery Ave,,Chicago,60649,South Shore,Active,Health Services,Eye,False,,773-493-7040,,
Community Mental Health Foundation,7701,,S Phillips Ave,,Chicago,,South Shore,Active,Health Services,Counselor,True,,773-721-8922,,
European Foot and Ankle Clinic,1471,,E 67th St,,Chicago,60637,South Shore,Moved,Health Services,Therapy outpatient,False,Moved to 1500 E 67th Street,773-684-8000,,
Lagus Life Choice Center,6716,,S Chappel Ave,Unit 1,Chicago,60649,South Shore,Out of Business,Health Services,Therapy outpatient,True,,,,
Symphony of South Shore,2425,,E 71st St,St,Chicago,60649,South Shore,Active,Health Services,Rehab inpatient,False,,773-721-5000,,
ER Ambulance,7355,,S Exchange Ave,,Chicago,60649,South Shore,Active,Health Services,Ambulance,False,,773-723-1575,,
Nu-Day Home Health Care Services,2453,,E 75th St,,Chicago,60649,South Shore,Active,Health Services,Mobile health service,False,,773-363-7711,,
Day's Adult Day Care Program,2453,,E 75th St,,Chicago,60649,South Shore,Active,Health Services,Other,False,,773-363-7770,,
Global Collection,2118,,E 71st St,,Chicago,60636,South Shore,Active,Health Services,Other,False,,,,
Annie's Legacy,1809,,E 71st St,St Suite 209,Chicago,60649,South Shore,Out of Business,Social Services & Political Advocacy,Social service,False,,773-363-3300,,
ABJ Community Services,1818,,E 71st St,St,Chicago,60649,South Shore,Active,Social Services & Political Advocacy,Social service,False,,773-947-6940,,
Black United Fund of Illinois,1809,,E 71st St,St Ste 200,Chicago,60649,South Shore,Active,Social Services & Political Advocacy,Social service,False,,773-324-0494,,
Come Alive Ministries of Faith,2206,,E 73rd St,,Chicago,,South Shore,Active,Social Services & Political Advocacy,Social service,False,Commercial Unknown,,,
Chicago and Northern District Association of Club Women and Girls,6736,,S Jeffery Ave,,Chicago,60649,South Shore,Out of Business,Social Services & Political Advocacy,Social service,True,,773-684-7013,,
Chicago Youth Centers - Rebecca K. Crown Center,7601,,S Phillips Ave,,Chicago,,South Shore,Active,Social Services & Political Advocacy,Social service,False,,773-731-0444,,
Fathers for the Future,1809,,E 71st St,,Chicago,60649,South Shore,Active,Social Services & Political Advocacy,Social service,False,,,,
Featherfist Development Corporation,2255,,E 75th St,,Chicago,60649,South Shore,Active,Social Services & Political Advocacy,Social service,False,,773-721-7088,,
GFM Development Corporation,7246,,S Luella Ave,,Chicago,60649,South Shore,Unknown,Social Services & Political Advocacy,Social service,True,,,,
Human Resources Development Institute,1755,,E 75th St,,Chicago,60649,South Shore,Active,Social Services & Political Advocacy,Social service,False,,312-441-9009,,
Kare Community Outreach,7538,,S Dorchester Ave,,Chicago,60619,South Shore,Out of Business,Social Services & Political Advocacy,Social service,True,,,,
Man Up Ministries,6852,,S Oglesby Ave,,Chicago,60649,South Shore,Unknown,Social Services & Political Advocacy,Social service,True,,,,
North Washington Park Community Development Corporation,7316,,S Merrill Ave,,Chicago,60649,South Shore,Unknown,Social Services & Political Advocacy,Social service,True,,,,
Puzzled Peaces,7346,,S Kenwood Ave,,Chicago,60619,South Shore,Active,Social Services & Political Advocacy,Social service,True,,773-905-8669,,
Southeast Training Center,1816,,E 79th St,Unit 18,Chicago,60649,South Shore,Active,Social Services & Political Advocacy,Social service,False,,773-530-0873,,
South Central Community Services - South Shore Campus,7550,,S Phillips Ave,,Chicago,,South Shore,Active,Social Services & Political Advocacy,Social service,False,,773-374-2223,,
The Parkways Resource Center,6720,,S East End Ave,,Chicago,60649,South Shore,Active,Social Services & Political Advocacy,Social service,False,,773-493-7300,,
Sports Factory Foundation,6850,,S South Shore Dr,,Chicago,60649,South Shore,Unknown,Social Services & Political Advocacy,Social service,True,,,,
Train a Child,7814,,S Burnham Ave,,Chicago,60649,South Shore,Unknown,Social Services & Political Advocacy,Social service,True,,,,
The Zakat Foundation of America,1759,,E 75th St,,Chicago,60649,South Shore,Active,Social Services & Political Advocacy,Social service,False,,773-363-4230,,
Catholic Charities - WIC Food Center,1802,,E 71st St,St,Chicago,60649,South Shore,Active,Social Services & Political Advocacy,Food Charity,False,,773-363-2500,,
Illinois Department of Employment Security - Woodlawn,1515,,E 71st St,St,Chicago,60619,South Shore,Active,Social Services & Political Advocacy,Employment,False,,773-947-2500,,
Loren's Hall,2245,,E 71st St,,Chicago,60649,South Shore,Out of Business,Social Services & Political Advocacy,Employment,False,Called and it was a new business,773-360-5113,,
Steven Lang's Aging & Disability Services,7527,,S Luella Ave,,Chicago,60649,South Shore,Unknown,Social Services & Political Advocacy,Disabled,True,,,,
Rald Institute,7517,,S Merrill Ave,,Chicago,60649,South Shore,Active,Social Services & Political Advocacy,Disabled,True,,773-752-8176,,
Vision Blu Institute,7643,,S Cornell Ave,,Chicago,60649,South Shore,Out of Business,Social Services & Political Advocacy,Other social service,True,,312-307-6223,,
Louis Rawls Foundation,6951,,S Dorchester Ave,,Chicago,60637,South Shore,Out of Business,Social Services & Political Advocacy,Other social service,True,,773-729-0514,,
Free Sewing Lessons,7818,,S Stony Island Ave,,Chicago,60649,South Shore,Out of Business,Social Services & Political Advocacy,Other social service,False,,773-731-0466,,
Coalition for Improved Education in South Shore,1809,,E 71st St,Ste 203,Chicago,60649,South Shore,Out of Business,Social Services & Political Advocacy,Other social service,True,,773-684-6070,,
Better Love Yourself Foundation,2214,,E 70th Pl,,Chicago,60649,South Shore,Unknown,Social Services & Political Advocacy,Other social service,True,,,,
Youth Financial Services,2210,,E 69th St,Unit 1E,Chicago,,South Shore,Active,Social Services & Political Advocacy,Other social service,True,,,,
Crusaders Of Justice For The Black Community,7802,,S Colfax Ave,Spt 1B,Chicago,60649,South Shore,Unknown,Social Services & Political Advocacy,Advocacy,True,,,,
Complete Environmental Management,7040,,S South Shore Dr,,Chicago,60649,South Shore,Active,Social Services & Political Advocacy,Advocacy,True,,773-363-1045,,
Black United Fund of Illinois - Mash Unit,1811,,E 71st St,St,Chicago,60649,South Shore,Active,Social Services & Political Advocacy,Advocacy,False,,773-324-2005,,
Chicago Women's AIDS Project South Office,2317,,E 71st St,St,Chicago,60649,South Shore,Active,Social Services & Political Advocacy,Advocacy,False,,773-955-8709,,
National Hook-Up of Black Women,1809,,E 71st St,Ste 205,Chicago,60649,South Shore,Active,Social Services & Political Advocacy,Advocacy,False,,773-667-7061,,
Parkside Community Advisory Council For Education And Community Affairs,1421,,E 68th St,,Chicago,,South Shore,Out of Business,Social Services & Political Advocacy,Advocacy,True,,,,
South Shore Planning and Preservation Coalition,1809,,E 71st St,Ste 201,Chicago,60649,South Shore,Out of Business,Social Services & Political Advocacy,Advocacy,False,,773-947-7077,,
South Shore Chamber of Commerce,1750,,E 71st St,St 208,Chicago,60649,South Shore,Active,Social Services & Political Advocacy,Advocacy,False,,773-955-9508,,
JA Gibson Realty,1750,,E 71st St,101,Chicago,60649,South Shore,Active,Social Services & Political Advocacy,Other,False,,773-324-4223,,
ICV Technical Institute,1750,,E 71st St,St 105,Chicago,60649,South Shore,Active,Social Services & Political Advocacy,Other,False,,773-363-6399,,
South Shore Self Storage,7843,,S Exchange Ave,,Chicago,60649,South Shore,Active,"Wholesale, Storage and Transportation",Public storage,False,,773-768-4500,,
Charter 4 Children,7008,,S Merrill Ave,,Chicago,60649,South Shore,Out of Business,"Wholesale, Storage and Transportation","Taxi, limo and similar",True,,,,
Pershing Dispatch,2610,,E 79th St,,Chicago,60649,South Shore,Active,"Wholesale, Storage and Transportation","Taxi, limo and similar",False,,,,
Your Limo Enterprise,7027,,S Constance Ave,,Chicago,60649,South Shore,Out of Business,"Wholesale, Storage and Transportation","Taxi, limo and similar",True,,312-852-1349,,
Willis Transportation,1717,,E 77th St,Apt 3,Chicago,60649,South Shore,Unknown,"Wholesale, Storage and Transportation","Taxi, limo and similar",True,,773-756-7894,,
Garrett Swain Limousine and Tour,6920,,S Crandon Ave,,Chicago,60649,South Shore,Active,"Wholesale, Storage and Transportation","Taxi, limo and similar",True,,773-955-9055,,
Tag Team Limousine,7800,,S Chappel Ave,,Chicago,60649,South Shore,Out of Business,"Wholesale, Storage and Transportation","Taxi, limo and similar",True,,773-374-7572,,
F Abren Enterprise,7418,,S Blackstone Ave,,Chicago,,South Shore,Active,"Wholesale, Storage and Transportation",Goods distribution,True,,773-599-8220,,
Emma Transportation,1338,,E 72nd Pl,,Chicago,60619,South Shore,Unknown,"Wholesale, Storage and Transportation",Goods distribution,True,,,,
Brian Sanders Trucking,7717,,S Phillips Ave,,Chicago,,South Shore,Out of Business,"Wholesale, Storage and Transportation",Goods distribution,True,,773-375-7578,,
Rich Logistics,7201,,S South Shore Dr,,Chicago,60649,South Shore,Active,"Wholesale, Storage and Transportation",Goods distribution,True,,773-491-5634,,
Perkins Moving Company,1807,,E 71st St,,Chicago,60649,South Shore,Active,"Wholesale, Storage and Transportation",Moving and storage,False,,773-667-8702,,
Light Year Moving,1502,,E 69th Pl,,Chicago,,South Shore,Active,"Wholesale, Storage and Transportation",Moving and storage,True,,,,
A Plus Movers,6700,,S Oglesby Ave,,Chicago,60649,South Shore,Out of Business,"Wholesale, Storage and Transportation",Moving and storage,True,,773-947-9022,,
U-Haul,1650,,E 71st St,,Chicago,60649,South Shore,Active,"Wholesale, Storage and Transportation",Moving and storage,False,,773-493-1206,,
Steve V-O Moving,1643,,E 71st St,,Chicago,60649,South Shore,Active,"Wholesale, Storage and Transportation",Moving and storage,False,,773-752-3538,,
Thunderbird Towing,6700,,S Oglesby Ave,Apt 20,Chicago,60649,South Shore,Unknown,"Wholesale, Storage and Transportation",Towing,True,,,,
Tim's 24-Hour Towing,6924,,S Cornell Ave,,Chicago,60649,South Shore,Out of Business,"Wholesale, Storage and Transportation",Towing,True,,,,
Qsymbiosis,1532,,E 68th St,,Chicago,,South Shore,Active,"Wholesale, Storage and Transportation",Wholesalers,True,,773-324-2792,,
Southshore Bottled Water Company,7555,,S Ridgeland Ave,,Chicago,60649,South Shore,Active,Industrial,Food processing plant,True,,773-324-7936,,
Production Tool Companies,1229,,E 74th St,,Chicago,60619,South Shore,Active,Industrial,Parts,False,,773-288-4400,,
Best Built Fabricating Company,7836,,S Crandon Ave,,Chicago,60649,South Shore,Out of Business,Industrial,Parts,False,,708-339-0505,,
Traffco Products,7731,,S South Chicago Ave,,Chicago,60619,South Shore,Active,Industrial,Parts,False,,773-374-6645,,
United Floor Machine Company,7715,,S South Chicago Ave,,Chicago,60619,South Shore,Active,Industrial,Finished goods,False,,773-734-0848,,
Leitelt Brothers,7721,,S South Chicago Ave,,Chicago,60619,South Shore,Active,Industrial,Finished goods,False,,773-721-1186,,
Shademaker Products,7300,,S Kimbark Ave,,Chicago,60619,South Shore,Active,Industrial,Finished goods,True,,773-955-0998,,
Old Landmark Church,7201,,S Jeffery Ave,,Chicago,60649,South Shore,Active,Religious (except school or residence),Church,False,,773-955-1409,,
Our Lady of Peace Catholic Church,7851,,S Jeffery Ave,,Chicago,60649,South Shore,Active,Religious (except school or residence),Church,False,,773-768-0105,,
Open Door Church of Christ,1962,,E 73rd St,,Chicago,60649,South Shore,Active,Religious (except school or residence),Church,False,,773-853-3446,,
Nehemiah Urban Church Ministries,7359,,S Chappel Ave,,Chicago,60649,South Shore,Active,Religious (except school or residence),Church,False,,773-955-1377,,
New Eden Evangelical Baptist Church,7421,,S Crandon Ave,,Chicago,,South Shore,Out of Business,Religious (except school or residence),Church,True,,,,
New Hope Christian Learning Center,2201,,E 70th Pl,,Chicago,,South Shore,Out of Business,Religious (except school or residence),Church,True,No signage to indicate business. No number posted. No members in attendance.,773-955-1772,,
New Jerusalem Evangelistic Church,1706,,E 75th St,,Chicago,60649,South Shore,Active,Religious (except school or residence),Church,False,,773-752-7992,,
New Life Church,1736,,E 79th St,,Chicago,,South Shore,Out of Business,Religious (except school or residence),Church,False,,773-734-2649,,
New Original Cogic,1750,,E 78th St,,Chicago,,South Shore,Active,Religious (except school or residence),Church,False,,773-978-0947,,
New Spiritual Light Missionary Baptist Church,7566,,S South Shore Dr,,Chicago,60649,South Shore,Active,Religious (except school or residence),Church,False,,773-734-5483,,
New Testament Memorial Church,1246,,E 75th St,,Chicago,60619,South Shore,Active,Religious (except school or residence),Church,False,,773-684-5301,,
New Testament Ministries,2600,,E 79th St,,Chicago,60649,South Shore,Out of Business,Religious (except school or residence),Church,False,,,,
New Tried Stone Missionary Baptist Church,7543,,S Luella Ave,,Chicago,60649,South Shore,Active,Religious (except school or residence),Church,True,,,,
New Life in Christ Church,2226,,E 75th St,,Chicago,60649,South Shore,Active,Religious (except school or residence),Church,False,,773-671-8100,,
Nu Grace Nu Mercy Church,7771,,S Exchange Ave,,Chicago,60649,South Shore,Active,Religious (except school or residence),Church,False,,773-382-1723,,
Lester Ministries,2225,,E 70th Pl,,Chicago,,South Shore,Unknown,Religious (except school or residence),Church,True,No signage to indicate business. No number posted. No members in attendance.,,,
Life Redeeming Ministries,2200,,E 75th St,,Chicago,60649,South Shore,Active,Religious (except school or residence),Church,True,,773-374-7009,,
Love Tabernacle Full Gospel Ministry,7465,,S South Shore Dr,Apt 507,Chicago,60649,South Shore,Active,Religious (except school or residence),Church,False,,,,
Love Universal Center Of Truth,6850,,S Oglesby Ave,,Chicago,60649,South Shore,Out of Business,Religious (except school or residence),Church,True,No signage to indicate business. No number posted.,,,
Labor of Love Apostolic Church,2800,,E 79th St,,Chicago,60649,South Shore,Active,Religious (except school or residence),Church,False,,773-734-7207,,
Kingdom Hall of Jehovah's Witnesses,1323,,E 71st St,St,Chicago,60619,South Shore,Active,Religious (except school or residence),Church,False,,773-667-0714,,
McKenzie Mission Church,2419,,E 75th St,,Chicago,60649,South Shore,Active,Religious (except school or residence),Church,False,,773-488-3018,,
Universal Prayer Tower,1335,,E 76th St,,Chicago,60619,South Shore,Active,Religious (except school or residence),Church,False,,773-437-3203,,
Upper Room Ministries,1400,,E 72nd St,,Chicago,,South Shore,Active,Religious (except school or residence),Church,False,,773-955-6958,,
Victory in Christ,6836,,S Cregier Ave,,Chicago,60649,South Shore,Active,Religious (except school or residence),Church,True,,,,
Windsor Park Evangelical Lutheran Church,2619,,E 76th St,,Chicago,60649,South Shore,Active,Religious (except school or residence),Church,False,,773-768-1812,,
Saint Philip Neri Church,2132,,E 72nd St,,Chicago,,South Shore,Active,Religious (except school or residence),Church,False,,773-363-1700,,
Sages Temple of Spiritual Communion Number Two,7743,,S Cornell Ave,,Chicago,60649,South Shore,Out of Business,Religious (except school or residence),Church,True,,,,
Saint Luke's Missionary Baptist Church,7262,,S Coles Ave,,Chicago,60649,South Shore,Active,Religious (except school or residence),Church,False,,773-768-8423,,
Saint Margaret's Church,2555,,E 73rd St,,Chicago,60649,South Shore,Active,Religious (except school or residence),Church,False,Church check,773-221-5505,,
South Shore Community Church,7401,,S Yates Blvd,,Chicago,60649,South Shore,Active,Religious (except school or residence),Church,False,,773-721-5905,,
South Shore Bible Baptist Church,7159,,S Cornell Ave,,Chicago,60649,South Shore,Active,Religious (except school or residence),Church,False,,773-752-3778,,
Temple of Brotherly Love Community Church,1843,,E 77th St,,Chicago,60649,South Shore,Active,Religious (except school or residence),Church,False,,773-221-3676,,
The Lord Is My Shepherd Ministries,7214,,S Dorchester Ave,,Chicago,60619,South Shore,Active,Religious (except school or residence),Church,False,,773-752-9348,,
Spreading the Word Worship Center,2728,,E 79th St,,Chicago,60649,South Shore,Active,Religious (except school or residence),Church,False,,773-741-6832,,
South Shore United Methodist Church,7350,,S Jeffery Ave,,Chicago,60649,South Shore,Active,Religious (except school or residence),Church,False,,773-752-6233,,
Pray in Faith Ministries,7131,,S Paxton Ave,,Chicago,60649,South Shore,Unknown,Religious (except school or residence),Church,True,Church check,,,
Prayer Cloth Ministries,7500,,S South Shore Dr,,Chicago,60649,South Shore,Out of Business,Religious (except school or residence),Church,True,,773-734-4739,,
Prayer Mission,7739,,S Stony Island Ave,,Chicago,60649,South Shore,Active,Religious (except school or residence),Church,False,,773-375-5928,,
Mountain of Love Evangelical Ministries,1850,,E 79th St,,Chicago,,South Shore,Out of Business,Religious (except school or residence),Church,False,,773-374-7475,,
Mountain of the Lord World Wide Ministries,2810,,E 79th St,,Chicago,60649,South Shore,Active,Religious (except school or residence),Church,False,,773-734-0093,,
Namsa Society Church,2043,,E 72nd Pl,3rd Floor,Chicago,,South Shore,Out of Business,Religious (except school or residence),Church,True,No signage to indicate business. No number posted. No members in attendance.,,,
Jesus Lives Ministry,7520,,S Coles Ave,Apt A,Chicago,,South Shore,Out of Business,Religious (except school or residence),Church,True,,,,
Israel of God,2515,,E 75th St,,Chicago,60649,South Shore,Active,Religious (except school or residence),Church,False,,773-382-5020,,
Harvest Mission Community Church Home,7147,,S Jeffery Ave,,Chicago,60649,South Shore,Out of Business,Religious (except school or residence),Church,True,,773-526-9761,,
Haven of Prayer & Praise Church,1304,,E 75th St,,Chicago,60619,South Shore,Out of Business,Religious (except school or residence),Church,False,Sunday church,773-324-0720,,
Holy Life Tabernacle Church,7631,,S Kingston Ave,,Chicago,,South Shore,Active,Religious (except school or residence),Church,True,,,,
Greater Metropolitan Church of Christ,2430,,E 75th St,,Chicago,60649,South Shore,Active,Religious (except school or residence),Church,False,,773-768-1876,,
A Passion for Christ Ministries,2251,,E 71st St,St,Chicago,60649,South Shore,Out of Business,Religious (except school or residence),Church,False,Church check,773-324-6899,,
Agape Apostolic Assembly,1459,,E 76th St,,Chicago,60619,South Shore,Active,Religious (except school or residence),Church,True,,,,
Agape Baptist Church,7611,,S Oglesby Ave,,Chicago,60649,South Shore,Unknown,Religious (except school or residence),Church,True,,,,
Celestial Church of Christ,6920,,S Harper Ave,,Chicago,60637,South Shore,Active,Religious (except school or residence),Church,False,,773-363-5333,,
Cage Memorial Chapel Limited,7651,,S Jeffery Ave,Fl 1,Chicago,60649,South Shore,Active,Religious (except school or residence),Church,False,,773-721-8900,,
Bryn Mawr Community Church,7000,,S Jeffery Ave,,Chicago,60649,South Shore,Active,Religious (except school or residence),Church,False,,773-324-2403,,
Church of Ephesus,1531,,E 67th St,,Chicago,60637,South Shore,Active,Religious (except school or residence),Church,True,,,,
Church of Living Water,7613,,S Chappel Ave,,Chicago,60649,South Shore,Out of Business,Religious (except school or residence),Church,True,,773-731-4750,,
Saint Bride Catholic Church,7811,,S Coles Ave,,Chicago,60649,South Shore,Active,Religious (except school or residence),Church,False,,773-734-2933,,
Christ Embassy Church,7118,,S Jeffery Ave,,Chicago,60649,South Shore,Out of Business,Religious (except school or residence),Church,False,,773-295-4244,,
Christ Temple Community Church,7400,,S Blackstone Ave,,Chicago,,South Shore,Active,Religious (except school or residence),Church,False,,773-288-2823,,
Christian Fellowship Missionary Baptist Church,2022,,E 73rd St,,Chicago,60649,South Shore,Active,Religious (except school or residence),Church,False,,773-324-1781,,
Connect to Him,7843,,S Paxton Ave,,Chicago,,South Shore,Unknown,Religious (except school or residence),Church,True,No signage to indicate business. No number posted. No members in attendance.,,,
Diamonds in the Ruff Ministries,1459,,E 76th St,,Chicago,60619,South Shore,Active,Religious (except school or residence),Church,True,,773-934-4647,,
Excellent Way Church of God in Christ,2510,,E 79th St,,Chicago,60649,South Shore,Active,Religious (except school or residence),Church,False,,773-375-1500,,
Fidelity Baptist Church,1418,,E 75th St,,Chicago,60619,South Shore,Active,Religious (except school or residence),Church,False,,773-324-7880,,
Family Of Faith Evangelist Temple Church Of God,6701,,S Blackstone Ave,,Chicago,,South Shore,Active,Religious (except school or residence),Church,False,,773-947-9801,,
Faith Chapel Church,2818,,E 79th St,,Chicago,,South Shore,Active,Religious (except school or residence),Church,False,,773-374-1349,,
Free Salvation Missionary Baptist Church,7549,,S Phillips Ave,,Chicago,,South Shore,Active,Religious (except school or residence),Church,False,,773-731-4036,,
First Christian Assembly,2333,,E 75th St,,Chicago,60649,South Shore,Active,Religious (except school or residence),Church,False,,773-731-2323,,
Glory To Glory Deliverance Ministry,7130,,S Cyril Ave,Apt 402,Chicago,60649,South Shore,Out of Business,Religious (except school or residence),Church,True,No signs or number,,,
Glory To God Christian Church Ministries,7442,,S Dorchester Ave,,Chicago,,South Shore,Out of Business,Religious (except school or residence),Church,True,,,,
God First Ministries,2110,,E 73rd St,,Chicago,,South Shore,Out of Business,Religious (except school or residence),Church,True,,773-667-5200,,
Mosque Maryam - The National Center,7351,,S Stony Island Ave,,Chicago,60649,South Shore,Active,Religious (except school or residence),Mosque,False,,773-324-6525,,
Pirtle,1962,,E 73rd St,Apt 104,Chicago,60649,South Shore,Active,Religious (except school or residence),Other religious except residential,True,,773-752-0060,,
Future Presidents Daycare,7521,,S Dante Ave,,Chicago,60619,South Shore,Unknown,Childcare and Schools,Home daycare,True,,,,
Family Rescue,6824,,S Ridgeland Ave,,Chicago,60649,South Shore,Active,Childcare and Schools,Home daycare,True,,773-375-1918,,
Extended Family Daycare,7440,,S Euclid Ave,,Chicago,60649,South Shore,Out of Business,Childcare and Schools,Home daycare,True,,773-684-0511,,
Ernestine's Home Day Care,2109,,E 68th St,,Chicago,,South Shore,Out of Business,Childcare and Schools,Home daycare,True,,,,
Daycare,7631,,S Phillips Ave,,Chicago,,South Shore,Out of Business,Childcare and Schools,Home daycare,True,No sign number disconnected,312-308-3862,,
D.P. Daycare and Learning Center,7640,,S Colfax Ave,,Chicago,60649,South Shore,Active,Childcare and Schools,Home daycare,True,,773-734-4426,,
Chrissy Bears Day Care And After School,1422,,E 70th St,,Chicago,,South Shore,Active,Childcare and Schools,Home daycare,True,,773-983-2099,,
Brothers Making A Difference,7838,,S Escanaba Ave,,Chicago,,South Shore,Active,Childcare and Schools,Home daycare,True,,773-359-4614,,
Charlie's Little Angels Day Care,7350,,S Dante Ave,,Chicago,60619,South Shore,Active,Childcare and Schools,Home daycare,True,,773-256-0217,,
A Little More Luv Home Day Care,7650,,S Marquette Ave,,Chicago,60649,South Shore,Active,Childcare and Schools,Home daycare,True,,773-902-2475,,
A Special Place 2 Stay,6730,,S South Shore Dr,,Chicago,60649,South Shore,Out of Business,Childcare and Schools,Home daycare,True,Phone number isnt correct,312-607-5825,,
Achievers Academy World,6832,,S Crandon Ave,Apt 6,Chicago,60649,South Shore,Out of Business,Childcare and Schools,Home daycare,True,,630-886-9203,,
Addie's Child Care,2201,,E 67th St,Fl 2,Chicago,60649,South Shore,Unknown,Childcare and Schools,Home daycare,True,,,,
Baby Steps Daycare,2471,,E 74th St,,Chicago,60649,South Shore,Active,Childcare and Schools,Home daycare,True,,773-842-4601,,
Jackson's Play House,7621,,S East End Ave,,Chicago,60649,South Shore,Active,Childcare and Schools,Home daycare,True,,773-562-8660,,
Mother Plumtree's Playhouse,2656,,E 74th St,,Chicago,60649,South Shore,Active,Childcare and Schools,Home daycare,True,,773-933-1894,,
Melissa's Childcare Center,7725,,S Cornell Ave,Bsmt,Chicago,60649,South Shore,Active,Childcare and Schools,Home daycare,True,,773-374-9378,,
Healthy Start,6737,,S Ridgeland Ave,,Chicago,60649,South Shore,Active,Childcare and Schools,Home daycare,True,,773-684-6110,,
Hidaya's Licensed Day Care,1520,,E 72nd Pl,,Chicago,60619,South Shore,Active,Childcare and Schools,Home daycare,True,,773-752-5879,,
Happy Feets,2813,,E 77th Pl,,Chicago,60649,South Shore,Unknown,Childcare and Schools,Home daycare,True,,312-502-3927,,
Home Away from Home,7744,,S Colfax Ave,,Chicago,60649,South Shore,Out of Business,Childcare and Schools,Home daycare,True,,773-721-8296,,
Home Day Care,2051,,E 72nd Pl,,Chicago,60649,South Shore,Unknown,Childcare and Schools,Home daycare,True,,,,
Home Day Care,1722,,E 76th St,,Chicago,60649,South Shore,Active,Childcare and Schools,Home daycare,True,,773-955-1504,,
Home Day Care,2449,,E 73rd St,,Chicago,60649,South Shore,Unknown,Childcare and Schools,Home daycare,True,No answer,773-374-7040,,
Home Day Care,2732,,E 76th St,,Chicago,60649,South Shore,Active,Childcare and Schools,Home daycare,True,,773-721-3228,,
Home Day Care,2921,,E 78th St,,Chicago,,South Shore,Active,Childcare and Schools,Home daycare,True,,,,
Home Day Care,7652,,S Coles Ave,,Chicago,60649,South Shore,Unknown,Childcare and Schools,Home daycare,True,"Called, voicemail full; no online presence",773-978-1323,,
Home Day Care,7724,,S Coles Ave,,Chicago,60649,South Shore,Out of Business,Childcare and Schools,Home daycare,True,,773-440-4858,,
Home Day Care,7337,,S Crandon Ave,,Chicago,60649,South Shore,Out of Business,Childcare and Schools,Home daycare,True,,773-734-9135,,
Home Day Care,6843,,S Dorchester Ave,,Chicago,60637,South Shore,Active,Childcare and Schools,Home daycare,True,,773-955-5806,,
Home Day Care,6810,,S East End Ave,,Chicago,60649,South Shore,Out of Business,Childcare and Schools,Home daycare,True,,,,
Home Day Care,7632,,S Euclid Ave,,Chicago,60649,South Shore,Out of Business,Childcare and Schools,Home daycare,True,,773-933-0339,,
Home Day Care,7550,,S Exchange Ave,Apt 2A,Chicago,60649,South Shore,Active,Childcare and Schools,Home daycare,True,,773-530-0389,,
Home Day Care,6934,,S Jeffery Ave,Fl 2,Chicago,60649,South Shore,Active,Childcare and Schools,Home daycare,True,,,,
Home Day Care,7641,,S Merrill Ave,,Chicago,60649,South Shore,Unknown,Childcare and Schools,Home daycare,True,,773-734-8720,,
Home Day Care,7825,,S Oglesby Ave,,Chicago,60649,South Shore,Active,Childcare and Schools,Home daycare,True,,773-356-9226,,
Home Day Care,7222,,S Paxton Ave,,Chicago,60649,South Shore,Unknown,Childcare and Schools,Home daycare,True,,,,
Home Day Care,7308,,S Paxton Ave,,Chicago,60649,South Shore,Active,Childcare and Schools,Home daycare,True,,773-469-7670,,
Home Day Care,7217,,S Phillips Ave,,Chicago,,South Shore,Unknown,Childcare and Schools,Home daycare,True,No sign or number,,,
Home Day Care,6700,,S South Shore Dr,Apt 6A,Chicago,60649,South Shore,Out of Business,Childcare and Schools,Home daycare,True,,,,
Home Day Care,7337,,S Yates Blvd,Apt 2,Chicago,60649,South Shore,Active,Childcare and Schools,Home daycare,True,,773-768-2829,,
Home Sweet Home Child Care Services,1342,,E 76th St,,Chicago,60619,South Shore,Unknown,Childcare and Schools,Home daycare,True,,773-493-1025,,
Klever Kids Home Daycare,6900,,S Chappel Ave,,Chicago,60649,South Shore,Out of Business,Childcare and Schools,Home daycare,True,,773-363-3806,,
Mai Mai's Christian Day Care,7828,,S Cregier Ave,,Chicago,60649,South Shore,Out of Business,Childcare and Schools,Home daycare,True,,,,
Nurture Nest Child Care,6754,,S Cornell Ave,,Chicago,60649,South Shore,Active,Childcare and Schools,Home daycare,True,,773-616-5622,,
Noelle's Kiddie College,7612,,S Marquette Ave,,Chicago,60649,South Shore,Active,Childcare and Schools,Home daycare,True,,773-812-4197,,
Nikki J's Little Angels Home Daycare,7437,,S Chappel Ave,,Chicago,60649,South Shore,Unknown,Childcare and Schools,Home daycare,True,,,,
PhylClay's Childcare,7550,,S Exchange Ave,,Chicago,60649,South Shore,Out of Business,Childcare and Schools,Home daycare,True,,773-731-8171,,
Precious Minds,7623,,S Yates Blvd,Apt 3,Chicago,60649,South Shore,Out of Business,Childcare and Schools,Home daycare,True,,,,
Marion Night & Day Daycare,7325,,S Yates Blvd,,Chicago,60649,South Shore,Active,Childcare and Schools,Home daycare,True,,773-443-9999,,
Kids World Home Daycare,7441,,S Yates Blvd,,Chicago,60649,South Shore,Out of Business,Childcare and Schools,Home daycare,True,,773-768-1904,,
Romella Playhouse,7533,,S Jeffery Ave,,Chicago,60649,South Shore,Out of Business,Childcare and Schools,Home daycare,True,,773-753-8903,,
Sterma's Daycare,7609,,S Paxton Ave,,Chicago,60649,South Shore,Unknown,Childcare and Schools,Home daycare,True,,773-978-1483,,
Shine So Bright Day Care,7000,,S Merrill Ave,Bsmt,Chicago,60649,South Shore,Out of Business,Childcare and Schools,Home daycare,True,,773-684-3848,,
Yolanda Daycare,7143,,S Cornell Ave,,Chicago,60649,South Shore,Active,Childcare and Schools,Home daycare,True,,773-587-5667,,
Angels Infant 2 Toddler Home Daycare,1711,,E 73rd St,,Chicago,60649,South Shore,Active,Childcare and Schools,Home daycare,True,,773-556-8805,,
We Are Family,7833,,S Escanaba Ave,,Chicago,,South Shore,Active,Childcare and Schools,Home daycare,True,,773-375-0050,,
Tish's Tiny Town For Tots Childcare Center,2233,,E 70th St,Apt 3,Chicago,,South Shore,Unknown,Childcare and Schools,Home daycare,True,No signs immediate voicemail,309-287-4997,,
Tracy's Daycare,7806,,S Luella Ave,,Chicago,60649,South Shore,Unknown,Childcare and Schools,Home daycare,True,,773-933-5336,,
S & S Learning Palace,7224,,S Bennett Ave,,Chicago,60649,South Shore,Unknown,Childcare and Schools,Home daycare,True,,,,
South Shore Bible Baptist Day Care Center,7159,,S Cornell Ave,,Chicago,60649,South Shore,Active,Childcare and Schools,Kid Center,False,,773-752-3778,,
Stair Step Villa Nursery and Kindergarten,6725,,S Jeffery Ave,,Chicago,60649,South Shore,Active,Childcare and Schools,Kid Center,False,,773-684-7340,,
Stepping Stones Early Childhood Learning Center,1300,,E 75th St,,Chicago,60619,South Shore,Active,Childcare and Schools,Kid Center,False,,773-493-0000,,
Kenyatta's Day Care Center,2334,,E 75th St,,Chicago,60649,South Shore,Active,Childcare and Schools,Kid Center,False,,773-221-3777,,
Little Apple Seeds Learning Academy,2672,,E 75th St,,Chicago,60649,South Shore,Active,Childcare and Schools,Kid Center,False,,773-375-9344,,
Loren Children Learning Center,2106,,E 79th St,,Chicago,60649,South Shore,Active,Childcare and Schools,Kid Center,False,,773-356-9400,,
Little Folks Daycare,2527,,E 73rd St,,Chicago,60649,South Shore,Active,Childcare and Schools,Kid Center,False,,773-221-0300,,
Higher Learning Child Care & Development,2526,,E 73rd St,,Chicago,60649,South Shore,Active,Childcare and Schools,Kid Center,False,,773-734-1251,,
Maranatha Headstart,1631,,E 71st St,St,Chicago,60649,South Shore,Active,Childcare and Schools,Kid Center,False,,773-493-7500,,
DJ Brooks Headstart Center,6921,,S Stony Island Ave,,Chicago,60649,South Shore,Active,Childcare and Schools,Kid Center,False,,773-955-2818,,
Chicago Organization For Education Discipline & Sports Corporation,1453,,E 72nd St,,Chicago,,South Shore,Active,Childcare and Schools,Kid Center,False,,,,
Ersula T. Howard Childcare Center,7222,,S Exchange Ave,,Chicago,60649,South Shore,Active,Childcare and Schools,Kid Center,False,,773-221-9711,,
Excel Academy of South Shore,7530,,S South Shore Dr,,Chicago,60649,South Shore,Active,Childcare and Schools,Public school K-12,False,,773-902-7800,,
Chicago Public Schools - Adam Clayton Powell Paideia Community Academy Elementary School,7511,,S South Shore Dr,,Chicago,60649,South Shore,Active,Childcare and Schools,Public school K-12,False,,773-535-6650,,
Chicago Public Schools - Edward A Bouchet Math and Science Academy Elementary School,7355,,S Jeffery Ave,,Chicago,60649,South Shore,Active,Childcare and Schools,Public school K-12,False,,773-535-0501,,
Chicago Public Schools - Isabelle C. O'Keeffe Elementary School,6940,,S Merrill Ave,,Chicago,60649,South Shore,Active,Childcare and Schools,Public school K-12,False,,773-535-0600,,
Chicago Public Schools - James Madison Elementary School,7433,,S Dorchester Ave,,Chicago,60619,South Shore,Active,Childcare and Schools,Public school K-12,False,,773-535-0551,,
Chicago Public Schools - Myra Bradwell Communications Arts and Sciences Elementary School,7736,,S Burnham Ave,,Chicago,60649,South Shore,Active,Childcare and Schools,Public school K-12,False,,773-535-6600,,
Chicago Public Schools - Parkside Elementary Community Academy,6938,,S East End Ave,,Chicago,60649,South Shore,Active,Childcare and Schools,Public school K-12,False,,773-535-0940,,
Chicago Public Schools - Robert A Black Magnet Elementary School - Branch School,7133,,S Coles Ave,,Chicago,60649,South Shore,Active,Childcare and Schools,Public school K-12,False,,773-535-6394,,
Chicago Public Schools - South Shore Fine Arts Academy,1415,,E 70th St,,Chicago,60637,South Shore,Active,Childcare and Schools,Public school K-12,False,,773-535-0540,,
Chicago Public Schools - South Shore International College Prep High School,1955,,E 75th St,,Chicago,60649,South Shore,Active,Childcare and Schools,Public school K-12,False,,773-535-8350,,
Muhammad University of Islam,7351,,S Stony Island Ave,,Chicago,60649,South Shore,Active,Childcare and Schools,Private school K-12,False,,773-643-0700,,
Saint Paul Lutheran School,7621,,S Dorchester Ave,,Chicago,60619,South Shore,Active,Childcare and Schools,Private school K-12,False,,773-721-1438,,
Saint Philip Neri School,2110,,E 72nd St,,Chicago,,South Shore,Active,Childcare and Schools,Private school K-12,False,,773-288-1138,,
Winnie Mandela Intergenerational Alternative High School,7847,,S Jeffery Ave,1st Floor,Chicago,60649,South Shore,Out of Business,Childcare and Schools,Private school K-12,False,,773-375-0529,,
Health Career Academy,7207,,S Stony Island Ave,,Chicago,60649,South Shore,Active,Childcare and Schools,Professional school,False,,773-423-7436,,
Kas Tutorial,2324,,E 75th St,Fl 1,Chicago,60649,South Shore,Out of Business,Childcare and Schools,Other,False,,773-221-9129,,
Ivy League Tutoring,7134,,S Jeffery Ave,,Chicago,60649,South Shore,Active,Childcare and Schools,Other,False,,773-752-2222,,
Augustine's Tutoring,7776,,S Coles Ave,,Chicago,60649,South Shore,Out of Business,Childcare and Schools,Other,True,,773-734-7238,,
Prologue Charles Houston High School,7847,,S Jeffery Ave,,Chicago,60649,South Shore,Active,Childcare and Schools,Other,False,,773-375-0529,,
Dianes Community Shelter,6700,,S South Shore Dr,Unit 25J,Chicago,60649,South Shore,Unknown,Service or Programmed Residential Space,Shelter,True,,,,
Excellent Way Urban Outreach Ministry,2510,,E 79th St,,Chicago,60649,South Shore,Active,Service or Programmed Residential Space,Shelter,False,,773-375-4632,,
Tri-Care,7615,,S Jeffery Ave,,Chicago,60649,South Shore,Active,Service or Programmed Residential Space,Group home,True,,773-375-6146,,
Waterfront Terrace,7750,,S South Shore Dr,,Chicago,60649,South Shore,Active,Service or Programmed Residential Space,Senior housing,True,,773-731-4200,,
Senior Suites of Rainbow Beach,2804,,E 77th Pl,Apt 409,Chicago,60649,South Shore,Active,Service or Programmed Residential Space,Senior housing,False,,773-374-5333,,
Senior Suites of South Shore,2355,,E 67th St,Ofc,Chicago,60649,South Shore,Active,Service or Programmed Residential Space,Senior housing,False,,773-324-2333,,
Sunrise Court Apartments,7708,,S South Shore Dr,,Chicago,60649,South Shore,Active,Service or Programmed Residential Space,Senior housing,True,,773-933-6050,,
Rachel's Home & Senior Care,7425,,S Euclid Ave,,Chicago,60649,South Shore,Out of Business,Service or Programmed Residential Space,Senior housing,True,,,,
Rainbow Beach Care Center,7325,,S Exchange Ave,,Chicago,60649,South Shore,Active,Service or Programmed Residential Space,Senior housing,False,,773-731-7300,,
Progressive Housing and Land,6834,,S Jeffery Ave,,Chicago,60649,South Shore,Unknown,Service or Programmed Residential Space,Senior housing,True,,,,
The Villa at Windsor Park,2649,,E 75th St,,Chicago,60649,South Shore,Active,Service or Programmed Residential Space,Senior housing,False,,773-356-9300,,
Jackson Park Supportive Living Facility,1448,,E 75th St,Apt 218,Chicago,60619,South Shore,Active,Service or Programmed Residential Space,Senior housing,False,,773-684-2391,,
Highlands Tudor Manor,7018,,S Cregier Ave,,Chicago,60649,South Shore,Active,Service or Programmed Residential Space,Senior housing,False,,773-667-1940,,
A Senior's Residence,2121,,E 72nd St,,Chicago,,South Shore,Active,Service or Programmed Residential Space,Senior housing,False,,,,
Cole's Supportive Living Senior Housing,7419,,S Exchange Ave,,Chicago,60649,South Shore,Active,Service or Programmed Residential Space,Senior housing,False,,773-933-7635,,
Good Shepherd Manor,6720,,S Cornell Ave,,Chicago,60649,South Shore,Active,Service or Programmed Residential Space,Senior housing,False,,773-288-0300,,
Good Shepherd Manor,6720,,S Stony Island Ave,,Chicago,60649,South Shore,Out of Business,Service or Programmed Residential Space,Senior housing,False,,773-288-0300,,
MHA Group,7200,,S Exchange Ave,Ste A,Chicago,60649,South Shore,Active,Service or Programmed Residential Space,Public,False,,773-375-0046,,
United States Post Office,7436,,S Exchange Ave,,Chicago,60649,South Shore,Active,Public Services,Post office,False,,,,
City of Chicago Fire Department,7313,,S Kingston Ave,,Chicago,60649,South Shore,Active,Public Services,City Fire Station,False,,,,
Chicago Public Library - South Shore Branch,2505,,E 73rd St,,Chicago,60649,South Shore,Active,Public Services,Library,False,,312-747-5281,,
Office of Alderman Leslie Hairston - 5th Ward,2325,,E 71st St,,Chicago,60649,South Shore,Active,Public Services,Representative,False,,773-324-5555,,
Office of State Representative Ken Dunkin - 5th District,2059,,E 75th St,,Chicago,60649,South Shore,Active,Public Services,Representative,False,,773-363-1411,,
Comed,7675,,S South Chicago Ave,,Chicago,60619,South Shore,Out of Business,Public Services,Utility-Electric,False,,800-334-7661,,
Stony Island Arts Bank,6760,,S Stony Island Ave,,Chicago,60649,South Shore,Active,Arts and Entertainment,Museum,False,,,,
Bronzeville Theatre Company,7016,,S Merrill Ave,,Chicago,60649,South Shore,Unknown,Arts and Entertainment,Live theater,True,,,,
Lamoores Catering Service,7227,,S Oglesby Ave,,Chicago,60649,South Shore,Unknown,Arts and Entertainment,Hall-party-cater,True,,773-752-5465,,
The Quarry Event Center,2423,,E 75th St,,Chicago,60649,South Shore,Active,Arts and Entertainment,Hall-party-cater,False,,773-259-1143,,
Melon Express Catering,7108,,S Oglesby Ave,,Chicago,60649,South Shore,Active,Arts and Entertainment,Hall-party-cater,True,,773-684-8420,,
Savoy Banquet Hall,2611,,E 75th St,,Chicago,60649,South Shore,Active,Arts and Entertainment,Hall-party-cater,False,,773-374-7060,,
Glam Galas,7752,,S East End Ave,,Chicago,60649,South Shore,Out of Business,Arts and Entertainment,Hall-party-cater,True,,773-208-7974,,
Etcetera Wedding Consulting,7227,,S Bennett Ave,,Chicago,60649,South Shore,Unknown,Arts and Entertainment,Hall-party-cater,True,,,,
Family Affair Catering,7821,,S Muskegon Ave,,Chicago,60649,South Shore,Unknown,Arts and Entertainment,Hall-party-cater,True,,773-375-2654,,
Red's New Generation,6926,,S Stony Island Ave,,Chicago,60637,South Shore,Active,Arts and Entertainment,Club-lounge-bar,False,,773-643-5100,,
Jeffery Pub,7041,,S Jeffery Ave,,Chicago,60649,South Shore,Active,Arts and Entertainment,Club-lounge-bar,False,,773-363-8555,,
Club Escape,1530,,E 75th St,,Chicago,60619,South Shore,Active,Arts and Entertainment,Club-lounge-bar,False,,773-667-6454,,
Delta Kappa Gamma Society - Illinois Beta Psi Chapter,7736,,S Bennett Ave,,Chicago,60649,South Shore,Unknown,Arts and Entertainment,Social club,True,,,,
National Association Of Miniature Enthusiasts,7414,,S Merrill Ave,,Chicago,60649,South Shore,Unknown,Arts and Entertainment,Social club,True,,,,
National Association of Parliamentarians,6700,,S Crandon Ave,Apt 13C,Chicago,60649,South Shore,Active,Arts and Entertainment,Social club,True,,,,
Broken Arrow Horseback Riding Corporation,2017,,E 67th St,,Chicago,60649,South Shore,Active,Arts and Entertainment,Social club,True,,773-684-8588,,
Free & Accepted Masons of Illinois - 30 Western Light,6925,,S Paxton Ave,,Chicago,60649,South Shore,Unknown,Arts and Entertainment,Social club,True,,,,
Free & Accepted Masons Of Illinois - 52 Prince Hall,1506,,E 72nd St,,Chicago,,South Shore,Active,Arts and Entertainment,Social club,True,,,,
G De Haas And Associates Production,7344,,S Merrill Ave,,Chicago,60649,South Shore,Unknown,Arts and Entertainment,Performers & arts instructors,True,,,,
Archive Library,6918,,S Dorchester Ave,,Chicago,60637,South Shore,Out of Business,Arts and Entertainment,Performers & arts instructors,False,,312-462-2612,,
Le Bagatae Dance And Drum,6901,,S Oglesby Ave,,Chicago,60649,South Shore,Unknown,Arts and Entertainment,Performers & arts instructors,True,,,,
Larlian Music,7144,,S Jeffery Ave,,Chicago,60649,South Shore,Out of Business,Arts and Entertainment,Performers & arts instructors,True,,773-667-6673,,
Ken Kool,2632,,E 74th St,,Chicago,60649,South Shore,Unknown,Arts and Entertainment,Performers & arts instructors,True,,773-636-4002,,
Muntu Dance Theatre of Chicago,1809,,E 71st St,Suite 203,Chicago,60649,South Shore,Active,Arts and Entertainment,Performers & arts instructors,False,,773-241-6080,,
My Naked Soul Productions,2214,,E 70th Pl,,Chicago,60649,South Shore,Active,Arts and Entertainment,Performers & arts instructors,True,,773-667-9608,,
Silkscreen Productions,2237,,E 70th Pl,,Chicago,60649,South Shore,Unknown,Arts and Entertainment,Performers & arts instructors,True,,708-439-8004,,
Ray of Hope Center of the Arts,1818,,E 71st St,St,Chicago,60649,South Shore,Active,Arts and Entertainment,Performers & arts instructors,False,,773-947-0447,,
Upanotch Records,2373,,E 70th St,Apt 1108,Chicago,,South Shore,Moved,Arts and Entertainment,Performers & arts instructors,True,,773-324-1705,,
Chicago Park District - South Shore Golf Course,7059,,S South Shore Dr,,Chicago,60649,South Shore,Active,Arts and Entertainment,Golf,False,,312-245-0909,,
Carousel Tours and Travel,6701,,S Crandon Ave,Apt 6C,Chicago,60649,South Shore,Active,Arts and Entertainment,Travel,True,,773-752-0033,,
Travelink Tours,2652,,E 73rd St,,Chicago,60649,South Shore,Out of Business,Arts and Entertainment,Travel,True,,773-295-4662,,
Two Book Travel,2656,,E 73rd St,,Chicago,60649,South Shore,Out of Business,Arts and Entertainment,Travel,True,,,,
On the Go Traveler,7722,,S Colfax Ave,,Chicago,60649,South Shore,Out of Business,Arts and Entertainment,Travel,True,,773-734-8002,,
Theaster Gates Studio,7200,,S Kimbark Ave,,Chicago,60619,South Shore,Active,Arts and Entertainment,Other,False,,217-779-1955,,
South Shore Tourism Center,1813,,E 71st St,,Chicago,60649,South Shore,Out of Business,Arts and Entertainment,Other,False,,773-955-9508,,
Sa Lone Productions,6700,,S Oglesby Ave,,Chicago,60649,South Shore,Out of Business,Arts and Entertainment,Other,True,,773-493-8631,,
Tac Karate Southshore Martial Arts,7223,,S Stony Island Ave,,Chicago,60649,South Shore,Active,Fitness,Fitness art,False,,773-684-8500,,
Step Alive,7009,,S Oglesby Ave,Ste 2B,Chicago,60649,South Shore,Unknown,Fitness,Fitness art,True,,,,
Vision 2 Vision Martial Arts Club,2204,,E 73rd St,,Chicago,60649,South Shore,Active,Fitness,Fitness art,False,,773-793-1253,,
Pump High Energy Fitness Center,1933,,E 71st St,St,Chicago,60649,South Shore,Active,Fitness,Gym,False,,773-808-8705,,
Chicago Park District - Don Nash Community Center,1833,,E 71st St,St,Chicago,60649,South Shore,Active,Fitness,Gym,False,,773-256-0904,,
Chicago Park District - Rainbow Beach Fieldhouse,3111,,E 77th St,,Chicago,60649,South Shore,Active,Fitness,Gym,False,,312-745-1479,,
Nutra Life Fitness Club,7242,,S Phillips Ave,,Chicago,,South Shore,Active,Fitness,Trainer,True,,,,
Old Gold Basketball Association,7653,,S Oglesby Ave,,Chicago,60649,South Shore,Unknown,Fitness,Sport team,True,,,,
Amateur Athletic Union Of The United States,2624,,E 74th Pl,,Chicago,,South Shore,Active,Fitness,Sport team,True,,,,
We Mean Green Neighborhood Garden,7659,,S Coles Ave,,Chicago,60649,South Shore,Unknown,Other,Community garden,True,,312-733-4640,,
South Shore Good Food Community Garden,1957,,E 73rd St,,Chicago,60649,South Shore,Out of Business,Other,Community garden,False,,773-420-3832,,
Community Garden,2700,,E 75th St,,Chicago,60649,South Shore,Out of Business,Other,Community garden,False,,,,
African World Research Institute,1719,,E 75th St,,Chicago,60649,South Shore,Out of Business,Other,Research body,False,,773-288-0999,,
Avh Security Consultants,6729,,S Ridgeland Ave,,Chicago,60649,South Shore,Unknown,Unknown,Unknown,True,,,,
B E Fruits Depot,6909,,S Crandon Ave,,Chicago,60649,South Shore,Out of Business,Unknown,Unknown,True,,,,
B Fli Productions,6851,,S Chappel Ave,Gdn,Chicago,60649,South Shore,Out of Business,Unknown,Unknown,True,,,,
Barbara Levingston,1359,,E 76th St,,Chicago,60619,South Shore,Unknown,Unknown,Unknown,True,,773-375-0362,,
Beautiful You,7337,,S South Shore Dr,,Chicago,60649,South Shore,Unknown,Unknown,Unknown,True,,,,
B&s Quality Management,7541,,S Kingston Ave,Ofc,Chicago,60649,South Shore,Unknown,Unknown,Unknown,True,,,,
Arielcej 2,7321,,S South Shore Dr,,Chicago,60649,South Shore,Unknown,Unknown,Unknown,True,,,,
Arch Enterprises,7447,,S South Shore Dr,,Chicago,60649,South Shore,Out of Business,Unknown,Unknown,True,,773-768-3734,,
Armstrong Enterprises,7321,,S South Shore Dr,,Chicago,60649,South Shore,Unknown,Unknown,Unknown,True,,773-375-9305,,
Aron G Bahta,6909,,S Jeffery Ave,,Chicago,60649,South Shore,Out of Business,Unknown,Unknown,True,,,,
Asa Management Investments,7631,,S Phillips Ave,Bsmt,Chicago,,South Shore,Out of Business,Unknown,Unknown,True,,,,
Ashland Management,7007,,S Chappel Ave,,Chicago,60649,South Shore,Out of Business,Unknown,Unknown,True,,,,
Austin Bj,1441,,E 72nd Pl,,Chicago,60619,South Shore,Out of Business,Unknown,Unknown,True,,,,
Austrian Cultural Roundtable,7352,,S Coles Ave,,Chicago,60649,South Shore,Unknown,Unknown,Unknown,True,,,,
Astro Development,7855,,S Coles Ave,Apt C,Chicago,60649,South Shore,Unknown,Unknown,Unknown,True,,773-731-2596,,
Association for a Better Tomorrow,7229,,S Constance Ave,,Chicago,60649,South Shore,Unknown,Unknown,Unknown,True,,,,
Association for Positive Development,6757,,S Jeffery Ave,,Chicago,60649,South Shore,Out of Business,Unknown,Unknown,True,,773-493-0110,,
Bronzeville Filmworks,7836,,S Euclid Ave,,Chicago,60649,South Shore,Out of Business,Unknown,Unknown,True,,773-375-5145,,
Blue,6700,,S South Shore Dr,,Chicago,60649,South Shore,Unknown,Unknown,Unknown,True,,773-643-6341,,
Bob-o-links Junior Golf Club,2024,,E 77th St,,Chicago,60649,South Shore,Unknown,Unknown,Unknown,True,,,,
Bop Initiative,1422,,E 71st Pl,Ste 1,Chicago,,South Shore,Unknown,Unknown,Unknown,True,,773-324-1399,,
Black Unity Preferred,7438,,S Merrill Ave,,Chicago,60649,South Shore,Unknown,Unknown,Unknown,True,,,,
Bessie Kates Foundation,6800,,S Constance Ave,,Chicago,60649,South Shore,Unknown,Unknown,Unknown,True,,,,
Better Unity Means Progress,7826,,S Paxton Ave,,Chicago,60649,South Shore,Out of Business,Unknown,Unknown,True,,,,
Big River Productions,7843,,S Coles Ave,,Chicago,60649,South Shore,Out of Business,Unknown,Unknown,True,,773-768-7029,,
Bichi Concepts and Designs,7213,,S Yates Blvd,,Chicago,60649,South Shore,Out of Business,Unknown,Unknown,True,,773-370-6700,,
American Communities Committee For All,2670,,E 78th St,,Chicago,,South Shore,Out of Business,Unknown,Unknown,True,,,,
Alpha 1 Home Services,6934,,S Jeffery Ave,,Chicago,60649,South Shore,Active,Unknown,Unknown,True,,773-966-5005,,
Angela Idowu,2314,,E 70th Pl,Apt 2,Chicago,60649,South Shore,Unknown,Unknown,Unknown,True,,,,
Agape Global Outreach,7260,,S South Shore Dr,Apt 4I,Chicago,60649,South Shore,Unknown,Unknown,Unknown,True,,,,
Affluent Marketing,2332,,E 70th Pl,,Chicago,60649,South Shore,Unknown,Unknown,Unknown,True,,773-842-9948,,
Albert Jordan,6845,,S Chappel Ave,,Chicago,60649,South Shore,Out of Business,Unknown,Unknown,True,,,,
Air Cool Products,7321,,S South Shore Dr,,Chicago,60649,South Shore,Active,Unknown,Unknown,True,,773-768-7155,,
Alicia Crawford,6916,,S Oglesby Ave,,Chicago,60649,South Shore,Out of Business,Unknown,Unknown,True,,773-288-1887,,
Alicia K Matthews,6852,,S South Shore Dr,,Chicago,60649,South Shore,Unknown,Unknown,Unknown,True,,,,
All Clean,7824,,S Yates Blvd,,Chicago,60649,South Shore,Out of Business,Unknown,Unknown,True,,,,
All In One General Supply Company,7749,,S Phillips Ave,,Chicago,,South Shore,Out of Business,Unknown,Unknown,True,No sign number business disconnected,773-374-0953,,
A Touch Of Classical Plus,7204,,S Ridgeland Ave,,Chicago,60649,South Shore,Unknown,Unknown,Unknown,True,,773-667-2386,,
Abednego Investments Group,7131,,S Cornell Ave,,Chicago,60649,South Shore,Out of Business,Unknown,Unknown,True,,773-684-7511,,
Academy for Scholarly Minds,7734,,S Colfax Ave,,Chicago,60649,South Shore,Out of Business,Unknown,Unknown,True,,773-374-8989,,
A Kiss of Honey Wholesale,7431,,S Coles Ave,,Chicago,60649,South Shore,Out of Business,Unknown,Unknown,True,,773-221-2474,,
1st Chicago Appraisals,2706,,E 76th Pl,,Chicago,,South Shore,Unknown,Unknown,Unknown,True,,773-551-6802,,
761st Tank Battalion and Allied Veterans Association,6910,,S Chappel Ave,,Chicago,60649,South Shore,Out of Business,Unknown,Unknown,True,,,,
3ew Vista Shop,6923,,S Crandon Ave,,Chicago,60649,South Shore,Out of Business,Unknown,Unknown,True,,,,
6900 S Chappel Avenue Block Club,6936,,S Chappel Ave,,Chicago,60649,South Shore,Out of Business,Unknown,Unknown,True,,,,
Community Intervention Development Services,7347,,S Coles Ave,,Chicago,60649,South Shore,Unknown,Unknown,Unknown,True,,,,
Common Ground Foundation,6932,,S Oglesby Ave,,Chicago,60649,South Shore,Out of Business,Unknown,Unknown,True,,773-643-9034,,
Comprehensive Child and Adolescent Services,6720,,S Bennett Ave,,Chicago,60649,South Shore,Unknown,Unknown,Unknown,True,Number is disconnected,773-643-0251,,
Contemporary Studies,6821,,S Euclid Ave,,Chicago,60649,South Shore,Unknown,Unknown,Unknown,True,,,,
Cornerstone,7823,,S Bennett Ave,Unit 25,Chicago,60649,South Shore,Out of Business,Unknown,Unknown,True,,,,
Cognitive Business Ventures,1633,,E 74th St,,Chicago,60649,South Shore,Unknown,Unknown,Unknown,True,Phone nunber jeot ringing but no answer,773-324-8644,,
Dr Claudette McFarland,7433,,S Constance Ave,,Chicago,60649,South Shore,Unknown,Unknown,Unknown,True,,773-643-0938,,
Deluxe Building Corporation,6922,,S Jeffery Ave,,Chicago,60649,South Shore,Active,Unknown,Unknown,True,,,,
Denise L Johnson,7600,,S Constance Ave,,Chicago,60649,South Shore,Unknown,Unknown,Unknown,True,,,,
Davenkeith,2210,,E 70th Pl,,Chicago,60649,South Shore,Unknown,Unknown,Unknown,True,,,,
Diane Fouch Health Products,7544,,S East End Ave,,Chicago,60649,South Shore,Out of Business,Unknown,Unknown,True,,,,
DFJ Independent Services,6831,,S Dante Ave,,Chicago,60637,South Shore,Unknown,Unknown,Unknown,True,,,,
Designs of Elegances,7208,,S Bennett Ave,,Chicago,60649,South Shore,Unknown,Unknown,Unknown,True,,,,
Desinted Media Group,6751,,S Chappel Ave,,Chicago,60649,South Shore,Out of Business,Unknown,Unknown,True,,312-375-5694,,
Da Jean Shears and Charity,7750,,S Muskegon Ave,,Chicago,60649,South Shore,Unknown,Unknown,Unknown,True,,,,
Cynthia Merchant,6950,,S Cregier Ave,Unit D,Chicago,60649,South Shore,Out of Business,Unknown,Unknown,True,,,,
Cytogen Corporation,7322,,S Bennett Ave,,Chicago,60649,South Shore,Unknown,Unknown,Unknown,True,,,,
D J P Development Limited,6701,,S Crandon Ave,Apt 2B,Chicago,60649,South Shore,Out of Business,Unknown,Unknown,True,,773-324-0322,,
Curtis Hinton,7347,,S Crandon Ave,,Chicago,60649,South Shore,Out of Business,Unknown,Unknown,True,,312-236-3619,,
Corporate Office Systems,2456,,E 72nd St,,Chicago,,South Shore,Out of Business,Unknown,Unknown,True,,312-948-8434,,
Cosmic Alliance,6700,,S Oglesby Ave,,Chicago,60649,South Shore,Out of Business,Unknown,Unknown,True,,,,
Crosier Community Of Chicago,7412,,S South Shore Dr,,Chicago,60649,South Shore,Unknown,Unknown,Unknown,True,,,,
Children Home Aid,7702,,S Phillips Ave,,Chicago,,South Shore,Out of Business,Unknown,Unknown,True,,,,
Children's Center for Learning Capacities,6901,,S Bennett Ave,,Chicago,60649,South Shore,Unknown,Unknown,Unknown,True,,,,
CHS Marketing Group,6916,,S Chappel Ave,,Chicago,60649,South Shore,Out of Business,Unknown,Unknown,True,,773-288-0227,,
Chynadoll Enterprises,7022,,S Bennett Ave,,Chicago,60649,South Shore,Unknown,Unknown,Unknown,True,,,,
Chicago Cotillion Charities Foundation,7321,,S South Shore Dr,Apt 10E,Chicago,60649,South Shore,Unknown,Unknown,Unknown,True,,,,
Chicago Inquirer,2051,,E 72nd St,,Chicago,,South Shore,Unknown,Unknown,Unknown,True,No sign or number,,,
Chi Child Records,7363,,S South Shore Dr,,Chicago,60649,South Shore,Unknown,Unknown,Unknown,True,,,,
Cheers Antnce,2506,,E 78th St,,Chicago,,South Shore,Unknown,Unknown,Unknown,True,,,,
Chase Holdings,7241,,S Luella Ave,,Chicago,60649,South Shore,Unknown,Unknown,Unknown,True,,773-288-8115,,
Brooks Permissions,6910,,S Cornell Ave,,Chicago,60649,South Shore,Active,Unknown,Unknown,True,,773-324-4844,,
Broughton Group,7157,,S Crandon Ave,,Chicago,60649,South Shore,Unknown,Unknown,Unknown,True,,312-560-7079,,
Brown Boy S,7359,,S Clyde Ave,,Chicago,60649,South Shore,Unknown,Unknown,Unknown,True,,,,
Brs Global,7120,,S Coles Ave,,Chicago,60649,South Shore,Unknown,Unknown,Unknown,True,,219-689-0979,,
Candy Wonderland,6819,,S Jeffery Ave,,Chicago,60649,South Shore,Out of Business,Unknown,Unknown,True,,708-849-1701,,
Capital Funding Solutions,6945,,S Oglesby Ave,,Chicago,60649,South Shore,Unknown,Unknown,Unknown,True,,,,
Bufford Marital,7321,,S Merrill Ave,,Chicago,60649,South Shore,Unknown,Unknown,Unknown,True,,,,
C Monee,7635,,S Oglesby Ave,,Chicago,60649,South Shore,Out of Business,Unknown,Unknown,True,,773-933-1728,,
C S Perry And Associates,2205,,E 70th Pl,Apt 2E,Chicago,60649,South Shore,Unknown,Unknown,Unknown,True,,,,
Carriers In Millenium National,6715,,S Ridgeland Ave,,Chicago,60649,South Shore,Unknown,Unknown,Unknown,True,,,,
Carrs Environmental Protection,6900,,S South Shore Dr,,Chicago,60649,South Shore,Unknown,Unknown,Unknown,True,,,,
Carmon Campbell Fontenot Scholarship Foundation,7011,,S Euclid Ave,,Chicago,60649,South Shore,Unknown,Unknown,Unknown,True,,,,
CB Logistics,6923,,S Jeffery Ave,,Chicago,60649,South Shore,Out of Business,Unknown,Unknown,True,,,,
CE Services,7141,,S Oglesby Ave,,Chicago,60649,South Shore,Out of Business,Unknown,Unknown,True,,773-818-9166,,
Cetek Solutions,6700,,S South Shore Dr,,Chicago,60649,South Shore,Out of Business,Unknown,Unknown,True,,773-752-8508,,
Cfm Designs,7321,,S South Shore Dr,,Chicago,60649,South Shore,Unknown,Unknown,Unknown,True,,,,
Chapman Popcorn,7129,,S Euclid Ave,Apt 2,Chicago,60649,South Shore,Active,Unknown,Unknown,True,,773-608-9625,,
Charles P Cotton,7411,,S Oglesby Ave,,Chicago,60649,South Shore,Out of Business,Unknown,Unknown,True,,773-731-8436,,
Charles Ramos Enterprises,7656,,S Euclid Ave,,Chicago,60649,South Shore,Active,Unknown,Unknown,True,,773-230-7931,,
Feed My Sheep,6909,,S Chappel Ave,,Chicago,60649,South Shore,Out of Business,Unknown,Unknown,True,,,,
Fathers For Future Foundation,1809,,E 71st Pl,Ste 200,Chicago,,South Shore,Unknown,Unknown,Unknown,True,No sign or number,,,
EWP Executive Cleaning Services,7239,,S Bennett Ave,,Chicago,60649,South Shore,Unknown,Unknown,Unknown,True,,,,
Exalt Marketing Communications,2038,,E 72nd Pl,,Chicago,60649,South Shore,Out of Business,Unknown,Unknown,True,,773-324-0775,,
Estate Entertainment,6932,,S Oglesby Ave,,Chicago,60649,South Shore,Unknown,Unknown,Unknown,True,,773-573-7295,,
Evangelist Williams and Soldier,7532,,S Yates Blvd,,Chicago,60649,South Shore,Active,Unknown,Unknown,True,,,,
Evelyn Gray,7305,,S Constance Ave,,Chicago,60649,South Shore,Unknown,Unknown,Unknown,True,,312-563-7123,,
Express Medical Claims Processing,7408,,S Luella Ave,,Chicago,60649,South Shore,Out of Business,Unknown,Unknown,True,,773-203-9820,,
Eye Urban Development,7832,,S Merrill Ave,,Chicago,60649,South Shore,Unknown,Unknown,Unknown,True,,,,
Dildy Group,7028,,S Cregier Ave,,Chicago,60649,South Shore,Out of Business,Unknown,Unknown,True,,,,
Diverse Horizons,6929,,S East End Ave,,Chicago,60649,South Shore,Out of Business,Unknown,Unknown,True,,,,
Diversity Spa,6825,,S Crandon Ave,,Chicago,60649,South Shore,Out of Business,Unknown,Unknown,True,,708-969-7485,,
Dmg Properties,7260,,S South Shore Dr,,Chicago,60649,South Shore,Unknown,Unknown,Unknown,True,,,,
Drastic Productions,7417,,S Phillips Ave,,Chicago,,South Shore,Out of Business,Unknown,Unknown,True,,,,
Donna Murray Designs,7447,,S South Shore Dr,,Chicago,60649,South Shore,Unknown,Unknown,Unknown,True,,,,
EMSR Service Group,7755,,S Constance Ave,,Chicago,60649,South Shore,Out of Business,Unknown,Unknown,True,,773-977-3107,,
enFULLAffect Marketing,6940,,S Cornell Ave,,Chicago,60649,South Shore,Out of Business,Unknown,Unknown,True,,,,
Eric J Sanders,7006,,S Constance Ave,,Chicago,60649,South Shore,Out of Business,Unknown,Unknown,True,,773-643-5440,,
Echo Alumni Association,7818,,S Cregier Ave,,Chicago,60649,South Shore,Out of Business,Unknown,Unknown,True,,,,
E Z Electric Systems,7243,,S Jeffery Ave,,Chicago,60649,South Shore,Out of Business,Unknown,Unknown,True,,,,
Elan Consulting Group,6730,,S Euclid Ave,,Chicago,60649,South Shore,Unknown,Unknown,Unknown,True,,773-955-3526,,
Elijah Meshiah & Associates,7512,,S Merrill Ave,,Chicago,60649,South Shore,Unknown,Unknown,Unknown,True,,773-752-3338,,
Ellisgroup Investments,7754,,S Yates Blvd,,Chicago,60649,South Shore,Active,Unknown,Unknown,True,,,,
Fred Williams,2355,,E 67th St,Apt 305,Chicago,60649,South Shore,Unknown,Unknown,Unknown,True,,,,
Focus Music Unlimited,1509,,E 74th Pl,,Chicago,60619,South Shore,Out of Business,Unknown,Unknown,True,,,,
Fisherman's Consulting Group,7251,,S South Shore Dr,Ofc,Chicago,60649,South Shore,Out of Business,Unknown,Unknown,True,,773-374-4401,,
Francis Gilmore,6736,,S Jeffery Ave,Ste 2,Chicago,60649,South Shore,Out of Business,Unknown,Unknown,True,,,,
G T Lewis and Associates,7328,,S Euclid Ave,,Chicago,60649,South Shore,Active,Unknown,Unknown,True,,773-752-3745,,
Gabby Miles,1518,,E 73rd St,,Chicago,60619,South Shore,Out of Business,Unknown,Unknown,True,,,,
Garth Marvin And Associates,7601,,S Kingston Ave,,Chicago,60649,South Shore,Unknown,Unknown,Unknown,True,,773-734-3018,,
Gary Mayberry,7422,,S Blackstone Ave,Unit 1,Chicago,,South Shore,Out of Business,Unknown,Unknown,True,,773-324-4932,,
Gambisara Enterprise,1709,,E 73rd St,,Chicago,60649,South Shore,Out of Business,Unknown,Unknown,True,,773-216-5821,,
Fruit Of Vine,7716,,S Phillips Ave,,Chicago,,South Shore,Unknown,Unknown,Unknown,True,No signs or number,,,
Frye,7132,,S Oglesby Ave,,Chicago,60649,South Shore,Unknown,Unknown,Unknown,True,,773-491-0890,,
Glenn's House,1907,,E 74th St,,Chicago,60649,South Shore,Unknown,Unknown,Unknown,True,,,,
Goldstar Communications And Marketing,6728,,S Oglesby Ave,,Chicago,60649,South Shore,Unknown,Unknown,Unknown,True,,773-363-6747,,
Godwin And Godwin,7051,,S Oglesby Ave,,Chicago,60649,South Shore,Unknown,Unknown,Unknown,True,,,,
Gifts For Your Home,7760,,S Coles Ave,,Chicago,60649,South Shore,Unknown,Unknown,Unknown,True,,,,
Gil Walker and Associates,7724,,S Luella Ave,,Chicago,60649,South Shore,Out of Business,Unknown,Unknown,True,,,,
Gilmore Service,2043,,E 72nd Pl,,Chicago,60649,South Shore,Out of Business,Unknown,Unknown,True,,,,
Gina Wina,7807,,S Essex Ave,,Chicago,60649,South Shore,Out of Business,Unknown,Unknown,True,,773-375-8030,,
Gets Hair Of Greater Chicago,6700,,S South Shore Dr,,Chicago,60649,South Shore,Unknown,Unknown,Unknown,True,,773-768-7977,,
Grant Mc Nair,6715,,S Oglesby Ave,,Chicago,60649,South Shore,Unknown,Unknown,Unknown,True,,773-493-5403,,
Gray Capital,1636,,E 69th St,Ste 3D,Chicago,,South Shore,Out of Business,Unknown,Unknown,True,,773-410-5118,,
Great Lakes De,7217,,S Coles Ave,,Chicago,60649,South Shore,Unknown,Unknown,Unknown,True,,,,
Hamilton Holistic Healthcare Limited,7427,,S South Shore Dr,,Chicago,60649,South Shore,Unknown,Unknown,Unknown,True,,773-933-3805,,
South Shore Little League,7145,,S Yates Blvd,,Chicago,60649,South Shore,Out of Business,Unknown,Unknown,True,,,,
Six Entertainment,7411,,S Constance Ave,,Chicago,60649,South Shore,Out of Business,Unknown,Unknown,True,,773-493-8225,,
Sonya Hardy,6901,,S Cregier Ave,,Chicago,60649,South Shore,Active,Unknown,Unknown,True,,773-684-6759,,
Soulshore,2226,,E 70th Pl,,Chicago,60649,South Shore,Unknown,Unknown,Unknown,True,,,,
Smart Start Academy,7362,,S South Shore Dr,,Chicago,60649,South Shore,Unknown,Unknown,Unknown,True,,773-653-5195,,
Solo Projex,7800,,S Coles Ave,,Chicago,60649,South Shore,Out of Business,Unknown,Unknown,True,,773-412-7364,,
Seedtime And Harvest,1509,,E 74th Pl,,Chicago,,South Shore,Out of Business,Unknown,Unknown,True,,,,
Serpentwise Films,7037,,S Chappel Ave,,Chicago,60649,South Shore,Out of Business,Unknown,Unknown,True,,,,
Sevan Solutions,7604,,S Phillips Ave,Apt 3,Chicago,,South Shore,Out of Business,Unknown,Unknown,True,,,,
Senegal Community Center,1962,,E 73rd St,,Chicago,60649,South Shore,Unknown,Unknown,Unknown,True,,,,
SCM Consulting Group,6945,,S Crandon Ave,,Chicago,60649,South Shore,Out of Business,Unknown,Unknown,True,,312-635-1400,,
Security Intervention Network Agency,7355,,S South Shore Dr,,Chicago,60649,South Shore,Unknown,Unknown,Unknown,True,,773-734-8014,,
S Rainer Organic Export,7337,,S South Shore Dr,,Chicago,60649,South Shore,Unknown,Unknown,Unknown,True,,,,
S T Y L E,1512,,E 69th St,,Chicago,,South Shore,Out of Business,Unknown,Unknown,True,,,,
Star And Crest Decorating,6700,,S South Shore Dr,,Chicago,60649,South Shore,Unknown,Unknown,Unknown,True,,773-269-1587,,
Suburban Emergency Physicians Group,6836,,S Euclid Ave,,Chicago,60649,South Shore,Unknown,Unknown,Unknown,True,,,,
Sutton Investments,7111,,S South Shore Dr,,Chicago,60649,South Shore,Unknown,Unknown,Unknown,True,,,,
Sweco Troutman,6916,,S Chappel Ave,Ste 1W,Chicago,60649,South Shore,Out of Business,Unknown,Unknown,True,,,,
Swift Investment Solutions,7741,,S Jeffery Ave,,Chicago,60649,South Shore,Out of Business,Unknown,Unknown,True,,,,
T And P Enterprises,1421,,E 67th Pl,,Chicago,,South Shore,Unknown,Unknown,Unknown,True,No sign no number,,,
Terrance Lake Commisary,7337,,S South Shore Dr,,Chicago,60649,South Shore,Unknown,Unknown,Unknown,True,,,,
Terrence Hines,6901,,S Oglesby Ave,Apt 5A,Chicago,60649,South Shore,Active,Unknown,Unknown,True,,773-288-3615,,
Talent Development Group,7610,,S South Shore Dr,Fl 3,Chicago,60649,South Shore,Unknown,Unknown,Unknown,True,,,,
Talkin Smack Publishing,7337,,S South Shore Dr,,Chicago,60649,South Shore,Unknown,Unknown,Unknown,True,,773-960-6620,,
Tat's Place Music Center,7319,,S Yates Blvd,,Chicago,60649,South Shore,Out of Business,Unknown,Unknown,True,,773-667-0182,,
The Mid-west Association For Creative Dynamism,7235,,S Coles Ave,,Chicago,60649,South Shore,Unknown,Unknown,Unknown,True,,,,
One Law Music,7724,,S Chappel Ave,,Chicago,60649,South Shore,Out of Business,Unknown,Unknown,True,,,,
Noble International (usa),7337,,S South Shore Dr,,Chicago,60649,South Shore,Unknown,Unknown,Unknown,True,,,,
Next Level Insurance Agency,7110,,S Cornell Ave,Apt 3B,Chicago,60649,South Shore,Out of Business,Unknown,Unknown,True,,,,
New Life Essentials,6712,,S Ridgeland Ave,Ste 2A,Chicago,60649,South Shore,Unknown,Unknown,Unknown,True,,,,
New Life Multicare Ministries,6934,,S Constance Ave,,Chicago,60649,South Shore,Unknown,Unknown,Unknown,True,,,,
Positive Outlet Systems,6700,,S South Shore Dr,,Chicago,60649,South Shore,Unknown,Unknown,Unknown,True,,,,
Pj Smith And Associates,7337,,S South Shore Dr,,Chicago,60649,South Shore,Unknown,Unknown,Unknown,True,,,,
PM Graphics,6950,,S Euclid Ave,,Chicago,60649,South Shore,Unknown,Unknown,Unknown,True,,773-955-5689,,
Personal Touch Preparatory Center Limited,7337,,S South Shore Dr,Apt 806,Chicago,60649,South Shore,Unknown,Unknown,Unknown,True,,,,
Pep Squad Organization,7230,,S Euclid Ave,,Chicago,60649,South Shore,Out of Business,Unknown,Unknown,True,,773-667-6950,,
Peacock Jeweline,7822,,S South Shore Dr,,Chicago,60649,South Shore,Unknown,Unknown,Unknown,True,,,,
Operation H E L P P,2614,,E 73rd St,Lower Level,Chicago,60649,South Shore,Out of Business,Unknown,Unknown,True,,,,
Opare Strategy and Development,7232,,S Crandon Ave,,Chicago,60649,South Shore,Unknown,Unknown,Unknown,True,,773-643-8442,,
Oswald Reginald Innis,7420,,S Kingston Ave,,Chicago,60649,South Shore,Unknown,Unknown,Unknown,True,,,,
Patti Cake,7425,,S Jeffery Ave,,Chicago,60649,South Shore,Out of Business,Unknown,Unknown,True,,,,
QP Marketing and Promotions,7233,,S Crandon Ave,,Chicago,60649,South Shore,Unknown,Unknown,Unknown,True,,773-643-4947,,
Psa Health Care,2623,,E 77th St,,Chicago,60649,South Shore,Unknown,Unknown,Unknown,True,,,,
Ragtime Enterprises,7251,,S South Shore Dr,,Chicago,60649,South Shore,Unknown,Unknown,Unknown,True,,630-991-3838,,
Radcliffe and Associates,6910,,S Chappel Ave,,Chicago,60649,South Shore,Out of Business,Unknown,Unknown,True,,,,
Prestige Consulting Group,7803,,S Clyde Ave,,Chicago,60649,South Shore,Out of Business,Unknown,Unknown,True,,312-296-6695,,
Rhynocorp,2507,,E 74th St,,Chicago,60649,South Shore,Unknown,Unknown,Unknown,True,,773-902-2576,,
Reign Down Production,7818,,S Luella Ave,,Chicago,60649,South Shore,Out of Business,Unknown,Unknown,True,,,,
Ronald Branch,7207,,S Luella Ave,,Chicago,60649,South Shore,Out of Business,Unknown,Unknown,True,,,,
Room To Bloom,6730,,S South Shore Dr,,Chicago,60649,South Shore,Unknown,Unknown,Unknown,True,,,,
Roberts Naurice,6700,,S Oglesby Ave,,Chicago,60649,South Shore,Out of Business,Unknown,Unknown,True,,773-684-7775,,
Rising Star Project,7210,,S Bennett Ave,,Chicago,60649,South Shore,Unknown,Unknown,Unknown,True,,,,
Richardson Enterprises,7544,,S Kingston Ave,,Chicago,60649,South Shore,Unknown,Unknown,Unknown,True,,,,
Rouse Real Estate Investments,6736,,S Merrill Ave,Apt 3N,Chicago,60649,South Shore,Unknown,Unknown,Unknown,True,,,,
Royaltys Extravaganza,7652,,S Colfax Ave,,Chicago,60649,South Shore,Unknown,Unknown,Unknown,True,,,,
Rtsi,6700,,S South Shore Dr,,Chicago,60649,South Shore,Unknown,Unknown,Unknown,True,,,,
Khnum Ra,7701,,S Kingston Ave,,Chicago,60649,South Shore,Unknown,Unknown,Unknown,True,,,,
Kj Consulting,6736,,S Chappel Ave,,Chicago,60649,South Shore,Active,Unknown,Unknown,True,,312-203-7342,,
Kmeleon Cars,7616,,S Kingston Ave,,Chicago,60649,South Shore,Unknown,Unknown,Unknown,True,,,,
Knights Of Peter Claver - 198 Holy Cross Court,7810,,S Merrill Ave,,Chicago,60649,South Shore,Unknown,Unknown,Unknown,True,,,,
L M Armstrong Foundation,6945,,S Chappel Ave,,Chicago,60649,South Shore,Out of Business,Unknown,Unknown,True,,,,
Larry Eason Maintenance,7241,,S Merrill Ave,,Chicago,60649,South Shore,Out of Business,Unknown,Unknown,True,,773-752-7910,,
Leatha R Woolfolk,6755,,S Crandon Ave,,Chicago,60649,South Shore,Unknown,Unknown,Unknown,True,,773-493-2752,,
Lacquered Images Limited,7337,,S South Shore Dr,,Chicago,60649,South Shore,Out of Business,Unknown,Unknown,True,,773-540-8656,,
Lady Entertainment,7030,,S Cornell Ave,Ste 1,Chicago,60649,South Shore,Out of Business,Unknown,Unknown,True,,,,
Literary Exchange,2617,,E 74th Pl,,Chicago,,South Shore,Unknown,Unknown,Unknown,True,No sign or number,,,
Leco's Transportation Service,7236,,S Phillips Ave,,Chicago,,South Shore,Out of Business,Unknown,Unknown,True,,,,
Lyda Graphics,7600,,S Phillips Ave,,Chicago,,South Shore,Out of Business,Unknown,Unknown,True,,,,
M Power U,7022,,S Cregier Ave,,Chicago,60649,South Shore,Out of Business,Unknown,Unknown,True,,,,
M6 Incorporated H U7238 S,7238,,S Cornell Ave,,Chicago,60649,South Shore,Out of Business,Unknown,Unknown,True,,773-363-9020,,
Machinists Tools,7237,,S Bennett Ave,,Chicago,60649,South Shore,Unknown,Unknown,Unknown,True,,,,
Love Foundation,7337,,S South Shore Dr,Apt 608,Chicago,60649,South Shore,Unknown,Unknown,Unknown,True,,,,
LRKS 80,6940,,S Jeffery Ave,Apt 3,Chicago,60649,South Shore,Out of Business,Unknown,Unknown,True,,,,
Lucas Greene Associates,7321,,S South Shore Dr,,Chicago,60649,South Shore,Active,Unknown,Unknown,True,,773-374-2200,,
National Association Of Postal Supervisors Alonzo J Jernigan Chicago,7420,,S Merrill Ave,,Chicago,60649,South Shore,Unknown,Unknown,Unknown,True,,,,
National Council of Negro Women,7426,,S Constance Ave,,Chicago,60649,South Shore,Unknown,Unknown,Unknown,True,,773-363-0441,,
Nehemiah Group,6938,,S Jeffery Ave,,Chicago,60649,South Shore,Active,Unknown,Unknown,True,,,,
Mytechiescom Corporation,6743,,S Cornell Ave,Unit 3N,Chicago,60649,South Shore,Active,Unknown,Unknown,True,,,,
Natalie Ford,7750,,S Euclid Ave,,Chicago,60649,South Shore,Unknown,Unknown,Unknown,True,Went to voicemail,773-731-8415,,
Must Read Books,6921,,S Oglesby Ave,,Chicago,60649,South Shore,Unknown,Unknown,Unknown,True,,,,
Muhammad Publishing,7212,,S Paxton Ave,,Chicago,60649,South Shore,Unknown,Unknown,Unknown,True,,773-324-5152,,
Montana Holding Corporation,1761,,E 71st Pl,,Chicago,,South Shore,Out of Business,Unknown,Unknown,True,,,,
Modern Technology II,7000,,S Cregier Ave,,Chicago,60649,South Shore,Active,Unknown,Unknown,True,,773-891-0017,,
MBMD Strategic Consultants,6757,,S Jeffery Ave,Ste A,Chicago,60649,South Shore,Out of Business,Unknown,Unknown,True,,773-288-2988,,
Masters Touch,6900,,S South Shore Dr,,Chicago,60649,South Shore,Unknown,Unknown,Unknown,True,,,,
Michael G Dyson Family,7149,,S Euclid Ave,,Chicago,60649,South Shore,Unknown,Unknown,Unknown,True,Straight to voicemail,773-363-3009,,
Mid-America Knights of Lithuania Institute,6939,,S Crandon Ave,,Chicago,60649,South Shore,Unknown,Unknown,Unknown,True,,,,
Mended Wings Developmental Institute,1639,,E 74th Pl,,Chicago,,South Shore,Unknown,Unknown,Unknown,True,No sign or number,,,
Mfinite Enterprise,6825,,S Merrill Ave,,Chicago,60649,South Shore,Unknown,Unknown,Unknown,True,,,,
Middle Passages,7144,,S Yates Blvd,Unit 2N,Chicago,60649,South Shore,Out of Business,Unknown,Unknown,True,,,,
Midwest Services,6939,,S Harper Ave,,Chicago,60637,South Shore,Unknown,Unknown,Unknown,True,,,,
Milestone Holdings,6900,,S South Shore Dr,,Chicago,60649,South Shore,Unknown,Unknown,Unknown,True,,,,
Millennium Information Systems,7638,,S Cornell Ave,,Chicago,60649,South Shore,Out of Business,Unknown,Unknown,True,,773-375-7959,,
Minority Enterprise Development Information Agency,7434,,S Luella Ave,,Chicago,60649,South Shore,Out of Business,Unknown,Unknown,True,,,,
Minority Holistic Health Initiative,6848,,S South Shore Dr,,Chicago,60649,South Shore,Out of Business,Unknown,Unknown,True,,773-406-2152,,
Miss Chicago American Pageants,7400,,S Luella Ave,,Chicago,60649,South Shore,Active,Unknown,Unknown,True,,,,
Jaurel Group,1506,,E 72nd St,,Chicago,,South Shore,Unknown,Unknown,Unknown,True,,,,
Jackson Park Highlands Association,7007,,S Cregier Ave,,Chicago,60649,South Shore,Out of Business,Unknown,Unknown,True,,,,
Its A Dunn Deal,7811,,S Chappel Ave,Ste 1E,Chicago,60649,South Shore,Unknown,Unknown,Unknown,True,,773-374-7900,,
International Perfume and Scent Bottle Collection Association,6922,,S Jeffery Ave,Unit 7N,Chicago,60649,South Shore,Active,Unknown,Unknown,True,,,,
K C Reality Investments,7831,,S Ridgeland Ave,,Chicago,60649,South Shore,Unknown,Unknown,Unknown,True,,,,
Kemis Kollections,6730,,S South Shore Dr,,Chicago,60649,South Shore,Unknown,Unknown,Unknown,True,,773-363-0857,,
Ken Hayes & Associates,6755,,S Ridgeland Ave,,Chicago,60649,South Shore,Unknown,Unknown,Unknown,True,,,,
Joyce A Hunter,6746,,S Jeffery Ave,,Chicago,60649,South Shore,Active,Unknown,Unknown,True,,773-298-3615,,
Jp Paskal's Designs,6730,,S South Shore Dr,,Chicago,60649,South Shore,Unknown,Unknown,Unknown,True,,,,
Juanita Bradley,7614,,S Oglesby Ave,,Chicago,60649,South Shore,Unknown,Unknown,Unknown,True,,773-768-5568,,
Judah Now,7337,,S South Shore Dr,Unit 824,Chicago,60649,South Shore,Unknown,Unknown,Unknown,True,,,,
Judie Neckwear,7807,,S Cregier Ave,,Chicago,60649,South Shore,Out of Business,Unknown,Unknown,True,,,,
Jupiter PC Solutions,7659,,S Euclid Ave,,Chicago,60649,South Shore,Unknown,Unknown,Unknown,True,,,,
Joshua G Jackson,1634,,E 69th St,Apt 1C,Chicago,,South Shore,Out of Business,Unknown,Unknown,True,,773-263-3428,,
Jonathan E Bloom & Associates,2666,,E 73rd St,Apt 11W,Chicago,60649,South Shore,Out of Business,Unknown,Unknown,True,,773-768-1100,,
Jewels International,1415,,E 75th St,Unit 1,Chicago,60619,South Shore,Out of Business,Unknown,Unknown,True,,,,
Jenkins Services,1406,,E 72nd Pl,,Chicago,60619,South Shore,Unknown,Unknown,Unknown,True,,,,
Hill Porshia,1717,,E 68th St,,Chicago,,South Shore,Out of Business,Unknown,Unknown,True,,,,
Holland's Realty and Mortgage Group Company,7308,,S Yates Blvd,Fl 3,Chicago,60649,South Shore,Out of Business,Unknown,Unknown,True,,773-933-9662,,
Htha Family Service Ministries,6700,,S South Shore Dr,Apt 3J,Chicago,60649,South Shore,Unknown,Unknown,Unknown,True,,773-256-1688,,
Heather Parish,6756,,S Oglesby Ave,,Chicago,60649,South Shore,Active,Unknown,Unknown,True,,773-684-5040,,
Help U Help Yourself,7119,,S Euclid Ave,Apt 3,Chicago,60649,South Shore,Unknown,Unknown,Unknown,True,,,,
Hawks Nest,6900,,S South Shore Dr,,Chicago,60649,South Shore,Unknown,Unknown,Unknown,True,,,,
Impeccably Elegant Creations,1934,,E 74th St,Apt 206,Chicago,60649,South Shore,Unknown,Unknown,Unknown,True,,773-543-4390,,
Indelible Entertainment,7718,,S South Shore Dr,,Chicago,60649,South Shore,Unknown,Unknown,Unknown,True,,773-908-5921,,
Innovative Communication Therapy,6941,,S Crandon Ave,,Chicago,60649,South Shore,Unknown,Unknown,Unknown,True,,773-324-0926,,
Insignia Advertising,7112,,S Euclid Ave,,Chicago,60649,South Shore,Unknown,Unknown,Unknown,True,Went to voicemail,773-818-6211,,
Institute of Universal Learning - Karim Foundation,7435,,S Kenwood Ave,,Chicago,60619,South Shore,Out of Business,Unknown,Unknown,True,,,,
Ifa Yoruba Contemporary Arts Foundation,6947,,S Euclid Ave,,Chicago,60649,South Shore,Unknown,Unknown,Unknown,True,,,,
Honeybee Popcorn Palace,7351,,S Kenwood Ave,,Chicago,60619,South Shore,Out of Business,Unknown,Unknown,True,,773-643-9201,,
I 2 R,7609,,S Clyde Ave,,Chicago,60649,South Shore,Out of Business,Unknown,Unknown,True,,,,
Harmony N Me,6816,,S Cregier Ave,,Chicago,60649,South Shore,Out of Business,Unknown,Unknown,True,,773-656-9116,,
Harris Shedrack Appraiser,7812,,S Cornell Ave,,Chicago,60649,South Shore,Out of Business,Unknown,Unknown,True,,,,
Harriet Tubman Place,7338,,S Crandon Ave,Unit 1,Chicago,60649,South Shore,Unknown,Unknown,Unknown,True,,,,
Gunz Development,6810,,S Dorchester Ave,,Chicago,60637,South Shore,Out of Business,Unknown,Unknown,True,,,,
H L Jackson Consulting,7645,,S Yates Blvd,,Chicago,60649,South Shore,Active,Unknown,Unknown,True,,773-636-4661,,
Hampton Enterprises,7456,,S South Shore Dr,,Chicago,60649,South Shore,Unknown,Unknown,Unknown,True,,,,
Wendell Phillips Centennial,7243,,S Coles Ave,,Chicago,60649,South Shore,Unknown,Unknown,Unknown,True,,,,
WDK Enterprises,7810,,S Jeffery Ave,,Chicago,60649,South Shore,Out of Business,Unknown,Unknown,True,,773-221-1588,,
Vision Management and Consulting,1402,,E 73rd St,,Chicago,60619,South Shore,Active,Unknown,Unknown,True,,773-288-5000,,
Vitto Okoye and Associates,7709,,S Luella Ave,,Chicago,60649,South Shore,Out of Business,Unknown,Unknown,True,,,,
Virago Racing Group,2571,,E 71st St,,Chicago,60649,South Shore,Out of Business,Unknown,Unknown,True,,312-953-2727,,
Ward War Against Racial Division,1534,,E 74th St,,Chicago,60619,South Shore,Unknown,Unknown,Unknown,True,,,,
Val Son Solutions,7647,,S Colfax Ave,,Chicago,60649,South Shore,Out of Business,Unknown,Unknown,True,,773-530-0514,,
Unity Parenting Center Focus Hope,7752,,S Kingston Ave,,Chicago,60649,South Shore,Unknown,Unknown,Unknown,True,,,,
Ultimate Spirit,7701,,S Oglesby Ave,,Chicago,60649,South Shore,Unknown,Unknown,Unknown,True,,,,
United Consumer Network,7131,,S Cornell Ave,,Chicago,60649,South Shore,Out of Business,Unknown,Unknown,True,,,,
Thompson Services,6906,,S Bennett Ave,,Chicago,60649,South Shore,Unknown,Unknown,Unknown,True,,773-288-2521,,
The Urban Wellness Project,7451,,S Euclid Pkwy,,Chicago,60649,South Shore,Active,Unknown,Unknown,True,,,,
Tj6freelance Design,2704,,E 76th St,Apt 2S,Chicago,60649,South Shore,Unknown,Unknown,Unknown,True,,708-217-2718,,
Together We Rise,7337,,S South Shore Dr,,Chicago,60649,South Shore,Unknown,Unknown,Unknown,True,,,,
Tom Skee Capital,6810,,S Dorchester Ave,,Chicago,60637,South Shore,Out of Business,Unknown,Unknown,True,,,,
Trade Point Illinois,2772,,E 75th St,,Chicago,60649,South Shore,Out of Business,Unknown,Unknown,True,,773-978-0550,,
Turner Foundation,7553,,S Essex Ave,Apt 1,Chicago,60649,South Shore,Unknown,Unknown,Unknown,True,,,,
Troutman Consulting,7530,,S Merrill Ave,,Chicago,60649,South Shore,Unknown,Unknown,Unknown,True,,,,
Truth Productions,2710,,E 77th St,,Chicago,60649,South Shore,Unknown,Unknown,Unknown,True,,,,
Trans Atlantic Prof,7432,,S Phillips Ave,,Chicago,,South Shore,Out of Business,Unknown,Unknown,True,,,,
Trashbag Saints,7538,,S Essex Ave,,Chicago,60649,South Shore,Out of Business,Unknown,Unknown,True,,,,
Youth Choice,6730,,S South Shore Dr,Apt 1502,Chicago,60649,South Shore,Unknown,Unknown,Unknown,True,,,,
Your Forte Special Events,7654,,S Paxton Ave,,Chicago,60649,South Shore,Unknown,Unknown,Unknown,True,,,,
X-clusivity Event Productions,7011,,S Chappel Ave,,Chicago,60649,South Shore,Out of Business,Unknown,Unknown,True,,312-275-5775,,
XS Tennis and Education Foundation,7211,,S Paxton Ave,,Chicago,60649,South Shore,Out of Business,Unknown,Unknown,True,,,,
Xwoods Enterprise,7727,,S Kingston Ave,3S,Chicago,60649,South Shore,Unknown,Unknown,Unknown,True,,,,
World Empire Financial,7136,,S Bennett Ave,Apt 3A,Chicago,60649,South Shore,Unknown,Unknown,Unknown,True,,,,
